{
"type": "FeatureCollection",
"name": "Batimetri 2025",
"crs": { "type": "name", "properties": { "name": "urn:ogc:def:crs:OGC:1.3:CRS84" } },
"features": [
{ "type": "Feature", "properties": { "OBJECTID": 29, "MapID": "Zona10K_UTM", "GridName": "1811-0332C", "RevSym": "4", "SHAPE_Leng": 0.133333332, "SHAPE_Area": 0.00111111109, "Nama_NLP": "TANJUNG KUNYIT 2", "No_NLP": "06", "THN": 2025 }, "geometry": { "type": "MultiPolygon", "coordinates": [ [ [ [ 116.066666666700144, -4.133333333300016 ], [ 116.033333333299993, -4.133333333300016 ], [ 116.033333333299993, -4.099839197050585 ], [ 116.066666666700144, -4.1 ], [ 116.066666666700144, -4.133333333300016 ] ] ] ] } },
{ "type": "Feature", "properties": { "OBJECTID": 29, "MapID": "Zona10K_UTM", "GridName": "1811-0332D", "RevSym": "4", "SHAPE_Leng": 0.133333332, "SHAPE_Area": 0.00111111109, "Nama_NLP": "PULAU LAUT 5", "No_NLP": "05", "THN": 2025 }, "geometry": { "type": "MultiPolygon", "coordinates": [ [ [ [ 116.100000000000136, -4.133333333300016 ], [ 116.066666666700144, -4.133333333300016 ], [ 116.066666666700144, -4.1 ], [ 116.100000000000136, -4.1 ], [ 116.100000000000136, -4.133333333300016 ] ] ] ] } },
{ "type": "Feature", "properties": { "OBJECTID": 29, "MapID": "Zona10K_UTM", "GridName": "1811-0332A", "RevSym": "4", "SHAPE_Leng": 0.133333332, "SHAPE_Area": 0.00111111109, "Nama_NLP": "TANJUNG KUNYIT 1", "No_NLP": "02", "THN": 2025 }, "geometry": { "type": "MultiPolygon", "coordinates": [ [ [ [ 116.066666666700144, -4.166666666699996 ], [ 116.033333333299993, -4.166666666699996 ], [ 116.033333333299993, -4.133333333300016 ], [ 116.066666666700144, -4.133333333300016 ], [ 116.066666666700144, -4.166666666699996 ] ] ] ] } },
{ "type": "Feature", "properties": { "OBJECTID": 29, "MapID": "Zona10K_UTM", "GridName": "1811-0332B", "RevSym": "4", "SHAPE_Leng": 0.133333332, "SHAPE_Area": 0.00111111109, "Nama_NLP": "TANJUNG TENGAH 1", "No_NLP": "01", "THN": 2025 }, "geometry": { "type": "MultiPolygon", "coordinates": [ [ [ [ 116.100000000000136, -4.166666666699996 ], [ 116.066666666700144, -4.166666666699996 ], [ 116.066666666700144, -4.133333333300016 ], [ 116.100000000000136, -4.133333333300016 ], [ 116.100000000000136, -4.166666666699996 ] ] ] ] } },
{ "type": "Feature", "properties": { "OBJECTID": 29, "MapID": "Zona10K_UTM", "GridName": "1811-0331B", "RevSym": "4", "SHAPE_Leng": 0.133333332, "SHAPE_Area": 0.00111111109, "Nama_NLP": "TANJUNG KUNYIT 4", "No_NLP": "03", "THN": 2025 }, "geometry": { "type": "MultiPolygon", "coordinates": [ [ [ [ 116.033333333299993, -4.166666666699996 ], [ 116.0, -4.166666666699996 ], [ 116.0, -4.133333333300016 ], [ 116.033333333299993, -4.133333333300016 ], [ 116.033333333299993, -4.166666666699996 ] ] ] ] } },
{ "type": "Feature", "properties": { "OBJECTID": 29, "MapID": "Zona10K_UTM", "GridName": "1811-0331D", "RevSym": "4", "SHAPE_Leng": 0.133333332, "SHAPE_Area": 0.00111111109, "Nama_NLP": "TANJUNG KUNYIT 5", "No_NLP": "07", "THN": 2025 }, "geometry": { "type": "MultiPolygon", "coordinates": [ [ [ [ 116.033333333299993, -4.133333333300016 ], [ 116.0, -4.133333333300016 ], [ 116.0, -4.1 ], [ 116.033333333299993, -4.1 ], [ 116.033333333299993, -4.133333333300016 ] ] ] ] } },
{ "type": "Feature", "properties": { "OBJECTID": 29, "MapID": "Zona10K_UTM", "GridName": "1811-0331C", "RevSym": "4", "SHAPE_Leng": 0.133333332, "SHAPE_Area": 0.00111111109, "Nama_NLP": "TANJUNG KUNYIT 8", "No_NLP": "08", "THN": 2025 }, "geometry": { "type": "MultiPolygon", "coordinates": [ [ [ [ 116.0, -4.133333333300016 ], [ 115.966666666700007, -4.133333333300016 ], [ 115.966666666700007, -4.1 ], [ 116.0, -4.1 ], [ 116.0, -4.133333333300016 ] ] ] ] } },
{ "type": "Feature", "properties": { "OBJECTID": 29, "MapID": "Zona10K_UTM", "GridName": "1811-0333B", "RevSym": "4", "SHAPE_Leng": 0.133333332, "SHAPE_Area": 0.00111111109, "Nama_NLP": "TANJUNG KUNYIT 6", "No_NLP": "11", "THN": 2025 }, "geometry": { "type": "MultiPolygon", "coordinates": [ [ [ [ 116.033333333299993, -4.1 ], [ 116.0, -4.1 ], [ 116.0, -4.066666666699973 ], [ 116.033333333299993, -4.066666666699973 ], [ 116.033333333299993, -4.1 ] ] ] ] } },
{ "type": "Feature", "properties": { "OBJECTID": 29, "MapID": "Zona10K_UTM", "GridName": "1811-0334A", "RevSym": "4", "SHAPE_Leng": 0.133333332, "SHAPE_Area": 0.00111111109, "Nama_NLP": "TANJUNG KUNYIT 3", "No_NLP": "10", "THN": 2025 }, "geometry": { "type": "MultiPolygon", "coordinates": [ [ [ [ 116.066666666700144, -4.1 ], [ 116.033333333299993, -4.1 ], [ 116.033333333299993, -4.066666666699973 ], [ 116.066666666700144, -4.066666666699973 ], [ 116.066666666700144, -4.1 ] ] ] ] } },
{ "type": "Feature", "properties": { "OBJECTID": 29, "MapID": "Zona10K_UTM", "GridName": "1811-0334C", "RevSym": "4", "SHAPE_Leng": 0.133333332, "SHAPE_Area": 0.00111111109, "Nama_NLP": "PULAU LAUT 1", "No_NLP": "14", "THN": 2025 }, "geometry": { "type": "MultiPolygon", "coordinates": [ [ [ [ 116.066666666700144, -4.066666666699973 ], [ 116.033333333299993, -4.066666666699973 ], [ 116.033333333299993, -4.033333333299993 ], [ 116.066666666700144, -4.033333333299993 ], [ 116.066666666700144, -4.066666666699973 ] ] ] ] } },
{ "type": "Feature", "properties": { "OBJECTID": 29, "MapID": "Zona10K_UTM", "GridName": "1811-0333D", "RevSym": "4", "SHAPE_Leng": 0.133333332, "SHAPE_Area": 0.00111111109, "Nama_NLP": "PULAU LAUT 2", "No_NLP": "15", "THN": 2025 }, "geometry": { "type": "MultiPolygon", "coordinates": [ [ [ [ 116.033333333299993, -4.066666666699973 ], [ 116.0, -4.066666666699973 ], [ 116.0, -4.033333332999973 ], [ 116.033333333299993, -4.033333333299993 ], [ 116.033333333299993, -4.066666666699973 ] ] ] ] } },
{ "type": "Feature", "properties": { "OBJECTID": 29, "MapID": "Zona10K_UTM", "GridName": "1811-0334B", "RevSym": "4", "SHAPE_Leng": 0.133333332, "SHAPE_Area": 0.00111111109, "Nama_NLP": "TANJUNG TENGAH 3", "No_NLP": "09", "THN": 2025 }, "geometry": { "type": "MultiPolygon", "coordinates": [ [ [ [ 116.100000000000136, -4.1 ], [ 116.066666666700144, -4.1 ], [ 116.066666666700144, -4.066666666699973 ], [ 116.100000000000136, -4.066666666699973 ], [ 116.100000000000136, -4.1 ] ] ] ] } },
{ "type": "Feature", "properties": { "OBJECTID": 29, "MapID": "Zona10K_UTM", "GridName": "1811-0334D", "RevSym": "4", "SHAPE_Leng": 0.133333332, "SHAPE_Area": 0.00111111109, "Nama_NLP": "PULAU LAUT 13", "No_NLP": "13", "THN": 2025 }, "geometry": { "type": "MultiPolygon", "coordinates": [ [ [ [ 116.100000000000136, -4.066666666699973 ], [ 116.066666666700144, -4.066666666699973 ], [ 116.066666666700144, -4.033333333299993 ], [ 116.100000000000136, -4.033333333299993 ], [ 116.100000000000136, -4.066666666699973 ] ] ] ] } },
{ "type": "Feature", "properties": { "OBJECTID": 29, "MapID": "Zona10K_UTM", "GridName": "1811-0333C", "RevSym": "4", "SHAPE_Leng": 0.133333332, "SHAPE_Area": 0.00111111109, "Nama_NLP": "PULAU LAUT 3", "No_NLP": "16", "THN": 2025 }, "geometry": { "type": "MultiPolygon", "coordinates": [ [ [ [ 116.0, -4.066666666699973 ], [ 115.966666666700007, -4.066666666699973 ], [ 115.966666666700007, -4.033333333299993 ], [ 116.0, -4.033333333299993 ], [ 116.0, -4.066666666699973 ] ] ] ] } },
{ "type": "Feature", "properties": { "OBJECTID": 29, "MapID": "Zona10K_UTM", "GridName": "1811-0333A", "RevSym": "4", "SHAPE_Leng": 0.133333332, "SHAPE_Area": 0.00111111109, "Nama_NLP": "TANJUNG KUNYIT 9", "No_NLP": "12", "THN": 2025 }, "geometry": { "type": "MultiPolygon", "coordinates": [ [ [ [ 116.0, -4.1 ], [ 115.966666666700007, -4.1 ], [ 115.966666666700007, -4.066666666699973 ], [ 116.0, -4.066666666699973 ], [ 116.0, -4.1 ] ] ] ] } },
{ "type": "Feature", "properties": { "OBJECTID": 29, "MapID": "Zona10K_UTM", "GridName": "1812-0213A", "RevSym": "4", "SHAPE_Leng": 0.133333332, "SHAPE_Area": 0.00111111109, "Nama_NLP": "TAPIAN BALAI 3", "No_NLP": "22", "THN": 2025 }, "geometry": { "type": "MultiPolygon", "coordinates": [ [ [ [ 116.0, -4.0 ], [ 115.966666666700007, -4.0 ], [ 115.966666666700007, -3.96666666669995 ], [ 116.0, -3.96666666669995 ], [ 116.0, -4.0 ] ] ] ] } },
{ "type": "Feature", "properties": { "OBJECTID": 29, "MapID": "Zona10K_UTM", "GridName": "1811-0335B", "RevSym": "4", "SHAPE_Leng": 0.133333332, "SHAPE_Area": 0.00111111109, "Nama_NLP": "GOSONG PANJANG 2", "No_NLP": "18", "THN": 2025 }, "geometry": { "type": "MultiPolygon", "coordinates": [ [ [ [ 116.033333333299993, -4.033333333299993 ], [ 116.0, -4.033333333299993 ], [ 116.0, -4.0 ], [ 116.033333333299993, -4.0 ], [ 116.033333333299993, -4.033333333299993 ] ] ] ] } },
{ "type": "Feature", "properties": { "OBJECTID": 29, "MapID": "Zona10K_UTM", "GridName": "1811-0335A", "RevSym": "4", "SHAPE_Leng": 0.133333332, "SHAPE_Area": 0.00111111109, "Nama_NLP": "GOSONG PANJANG 3", "No_NLP": "19", "THN": 2025 }, "geometry": { "type": "MultiPolygon", "coordinates": [ [ [ [ 116.0, -4.033333333299993 ], [ 115.966666666700007, -4.033333333299993 ], [ 115.966666666700007, -4.0 ], [ 116.0, -4.0 ], [ 116.0, -4.033333333299993 ] ] ] ] } },
{ "type": "Feature", "properties": { "OBJECTID": 29, "MapID": "Zona10K_UTM", "GridName": "1812-0221A", "RevSym": "4", "SHAPE_Leng": 0.133333332, "SHAPE_Area": 0.00111111109, "Nama_NLP": "TAPIAN BALAI 2", "No_NLP": "21", "THN": 2025 }, "geometry": { "type": "MultiPolygon", "coordinates": [ [ [ [ 116.033333333299993, -4.0 ], [ 116.0, -4.0 ], [ 116.0, -3.96666666669995 ], [ 116.033333333299993, -3.96666666669995 ], [ 116.033333333299993, -4.0 ] ] ] ] } },
{ "type": "Feature", "properties": { "OBJECTID": 29, "MapID": "Zona10K_UTM", "GridName": "1812-0222C", "RevSym": "4", "SHAPE_Leng": 0.133333332, "SHAPE_Area": 0.00111111109, "Nama_NLP": "GEMURUH 1", "No_NLP": "23", "THN": 2025 }, "geometry": { "type": "MultiPolygon", "coordinates": [ [ [ [ 116.100000000000136, -3.96666666669995 ], [ 116.066666666700144, -3.96666666669995 ], [ 116.066666666700144, -3.933333333300027 ], [ 116.100000000000136, -3.933333333300027 ], [ 116.100000000000136, -3.96666666669995 ] ] ] ] } },
{ "type": "Feature", "properties": { "OBJECTID": 29, "MapID": "Zona10K_UTM", "GridName": "1812-0221B", "RevSym": "4", "SHAPE_Leng": 0.133333332, "SHAPE_Area": 0.00111111109, "Nama_NLP": "TAPIAN BALAI 1", "No_NLP": "20", "THN": 2025 }, "geometry": { "type": "MultiPolygon", "coordinates": [ [ [ [ 116.066666666700144, -4.0 ], [ 116.033333333299993, -4.0 ], [ 116.033333333299993, -3.96666666669995 ], [ 116.066666666700144, -3.96666666669995 ], [ 116.066666666700144, -4.0 ] ] ] ] } },
{ "type": "Feature", "properties": { "OBJECTID": 29, "MapID": "Zona10K_UTM", "GridName": "1811-0336A", "RevSym": "4", "SHAPE_Leng": 0.133333332, "SHAPE_Area": 0.00111111109, "Nama_NLP": "GOSONG PANJANG 1", "No_NLP": "17", "THN": 2025 }, "geometry": { "type": "MultiPolygon", "coordinates": [ [ [ [ 116.066666666700144, -4.033333333299993 ], [ 116.033333333299993, -4.033333333299993 ], [ 116.033333333299993, -4.0 ], [ 116.066666666700144, -4.0 ], [ 116.066666666700144, -4.033333333299993 ] ] ] ] } },
{ "type": "Feature", "properties": { "OBJECTID": 29, "MapID": "Zona10K_UTM", "GridName": "1812-0221D", "RevSym": "4", "SHAPE_Leng": 0.133333332, "SHAPE_Area": 0.00111111109, "Nama_NLP": "GEMURUH 2", "No_NLP": "24", "THN": 2025 }, "geometry": { "type": "MultiPolygon", "coordinates": [ [ [ [ 116.066666666700144, -3.96666666669995 ], [ 116.033333333299993, -3.96666666669995 ], [ 116.033333333299993, -3.933333333300027 ], [ 116.066666666700144, -3.933333333300027 ], [ 116.066666666700144, -3.96666666669995 ] ] ] ] } },
{ "type": "Feature", "properties": { "OBJECTID": 29, "MapID": "Zona10K_UTM", "GridName": "1812-0221C", "RevSym": "4", "SHAPE_Leng": 0.133333332, "SHAPE_Area": 0.00111111109, "Nama_NLP": "GEMURUH 3", "No_NLP": "25", "THN": 2025 }, "geometry": { "type": "MultiPolygon", "coordinates": [ [ [ [ 116.033333333299993, -3.96666666669995 ], [ 116.0, -3.96666666669995 ], [ 116.0, -3.933333333300027 ], [ 116.033333333299993, -3.933333333300027 ], [ 116.033333333299993, -3.96666666669995 ] ] ] ] } },
{ "type": "Feature", "properties": { "OBJECTID": 29, "MapID": "Zona10K_UTM", "GridName": "1812-0223A", "RevSym": "4", "SHAPE_Leng": 0.133333332, "SHAPE_Area": 0.00111111109, "Nama_NLP": "SEBANTI 3", "No_NLP": "29", "THN": 2025 }, "geometry": { "type": "MultiPolygon", "coordinates": [ [ [ [ 116.033333333299993, -3.933333333300027 ], [ 116.0, -3.933333333300027 ], [ 116.0, -3.9 ], [ 116.033333333299993, -3.9 ], [ 116.033333333299993, -3.933333333300027 ] ] ] ] } },
{ "type": "Feature", "properties": { "OBJECTID": 29, "MapID": "Zona10K_UTM", "GridName": "1812-0224A", "RevSym": "4", "SHAPE_Leng": 0.133333332, "SHAPE_Area": 0.00111111109, "Nama_NLP": "SEBANTI 1", "No_NLP": "27", "THN": 2025 }, "geometry": { "type": "MultiPolygon", "coordinates": [ [ [ [ 116.100000000000136, -3.933333333300027 ], [ 116.066666666700144, -3.933333333300027 ], [ 116.066666666700144, -3.9 ], [ 116.100000000000136, -3.9 ], [ 116.100000000000136, -3.933333333300027 ] ] ] ] } },
{ "type": "Feature", "properties": { "OBJECTID": 29, "MapID": "Zona10K_UTM", "GridName": "1812-0213C", "RevSym": "4", "SHAPE_Leng": 0.133333332, "SHAPE_Area": 0.00111111109, "Nama_NLP": "GEMURUH 4", "No_NLP": "26", "THN": 2025 }, "geometry": { "type": "MultiPolygon", "coordinates": [ [ [ [ 116.0, -3.96666666669995 ], [ 115.966666666700007, -3.96666666669995 ], [ 115.966666666700007, -3.933333333300027 ], [ 116.0, -3.933333333300027 ], [ 116.0, -3.96666666669995 ] ] ] ] } },
{ "type": "Feature", "properties": { "OBJECTID": 29, "MapID": "Zona10K_UTM", "GridName": "1812-0223B", "RevSym": "4", "SHAPE_Leng": 0.133333332, "SHAPE_Area": 0.00111111109, "Nama_NLP": "SEBANTI 2", "No_NLP": "28", "THN": 2025 }, "geometry": { "type": "MultiPolygon", "coordinates": [ [ [ [ 116.066666666700144, -3.933333333300027 ], [ 116.033333333299993, -3.933333333300027 ], [ 116.033333333299993, -3.9 ], [ 116.066666666700144, -3.9 ], [ 116.066666666700144, -3.933333333300027 ] ] ] ] } },
{ "type": "Feature", "properties": { "OBJECTID": 29, "MapID": "Zona10K_UTM", "GridName": "1812-0432A", "RevSym": "4", "SHAPE_Leng": 0.133333332, "SHAPE_Area": 0.00111111109, "Nama_NLP": "BATULICIN 1", "No_NLP": "55", "THN": 2025 }, "geometry": { "type": "MultiPolygon", "coordinates": [ [ [ [ 116.033333333299993, -3.46666666669995 ], [ 116.0, -3.46666666660002 ], [ 116.0, -3.43333333329997 ], [ 116.033333333299993, -3.43333333329997 ], [ 116.033333333299993, -3.46666666669995 ] ] ] ] } },
{ "type": "Feature", "properties": { "OBJECTID": 29, "MapID": "Zona10K_UTM", "GridName": "1812-0436D", "RevSym": "4", "SHAPE_Leng": 0.133333332, "SHAPE_Area": 0.00111111109, "Nama_NLP": "SALINO 3", "No_NLP": "51", "THN": 2025 }, "geometry": { "type": "MultiPolygon", "coordinates": [ [ [ [ 116.066666666700144, -3.5 ], [ 116.033333333299993, -3.5 ], [ 116.033333333299993, -3.46666666669995 ], [ 116.066666666700144, -3.46666666669995 ], [ 116.066666666700144, -3.5 ] ] ] ] } },
{ "type": "Feature", "properties": { "OBJECTID": 29, "MapID": "Zona10K_UTM", "GridName": "1812-0432B", "RevSym": "4", "SHAPE_Leng": 0.133333332, "SHAPE_Area": 0.00111111109, "Nama_NLP": "MEKARPURA", "No_NLP": "54", "THN": 2025 }, "geometry": { "type": "MultiPolygon", "coordinates": [ [ [ [ 116.066666666700144, -3.46666666669995 ], [ 116.033333333299993, -3.46666666669995 ], [ 116.033333333299993, -3.43333333329997 ], [ 116.066666666700144, -3.43333333329997 ], [ 116.066666666700144, -3.46666666669995 ] ] ] ] } },
{ "type": "Feature", "properties": { "OBJECTID": 29, "MapID": "Zona10K_UTM", "GridName": "1812-0436C", "RevSym": "4", "SHAPE_Leng": 0.133333332, "SHAPE_Area": 0.00111111109, "Nama_NLP": "KERSIK PUTIH 2", "No_NLP": "52", "THN": 2025 }, "geometry": { "type": "MultiPolygon", "coordinates": [ [ [ [ 116.033333333299993, -3.5 ], [ 116.0, -3.5 ], [ 116.0, -3.46666666669995 ], [ 116.033333333299993, -3.46666666669995 ], [ 116.033333333299993, -3.5 ] ] ] ] } },
{ "type": "Feature", "properties": { "OBJECTID": 29, "MapID": "Zona10K_UTM", "GridName": "1812-0433A", "RevSym": "4", "SHAPE_Leng": 0.133333332, "SHAPE_Area": 0.00111111109, "Nama_NLP": "SELARU 1", "No_NLP": "53", "THN": 2025 }, "geometry": { "type": "MultiPolygon", "coordinates": [ [ [ [ 116.100000000000136, -3.46666666669995 ], [ 116.066666666700144, -3.46666666669995 ], [ 116.066666666700144, -3.43333333329997 ], [ 116.100000000000136, -3.43333333329997 ], [ 116.100000000000136, -3.46666666669995 ] ] ] ] } },
{ "type": "Feature", "properties": { "OBJECTID": 29, "MapID": "Zona10K_UTM", "GridName": "1812-0435B", "RevSym": "4", "SHAPE_Leng": 0.133333332, "SHAPE_Area": 0.00111111109, "Nama_NLP": "PULAU BURUNG 2", "No_NLP": "60", "THN": 2025 }, "geometry": { "type": "MultiPolygon", "coordinates": [ [ [ [ 116.066666666700144, -3.4 ], [ 116.033333333299993, -3.4 ], [ 116.033333333299993, -3.366666666699928 ], [ 116.066666666700144, -3.366666666699928 ], [ 116.066666666700144, -3.4 ] ] ] ] } },
{ "type": "Feature", "properties": { "OBJECTID": 29, "MapID": "Zona10K_UTM", "GridName": "1812-0436A", "RevSym": "4", "SHAPE_Leng": 0.133333332, "SHAPE_Area": 0.00111111109, "Nama_NLP": "PULAU BURUNG 1", "No_NLP": "59", "THN": 2025 }, "geometry": { "type": "MultiPolygon", "coordinates": [ [ [ [ 116.100000000000136, -3.4 ], [ 116.066666666700144, -3.4 ], [ 116.066666666700144, -3.366666666699928 ], [ 116.100000000000136, -3.366666666699928 ], [ 116.100000000000136, -3.4 ] ] ] ] } },
{ "type": "Feature", "properties": { "OBJECTID": 29, "MapID": "Zona10K_UTM", "GridName": "1812-0435A", "RevSym": "4", "SHAPE_Leng": 0.133333332, "SHAPE_Area": 0.00111111109, "Nama_NLP": "GUNUNGBESAR 1", "No_NLP": "61", "THN": 2025 }, "geometry": { "type": "MultiPolygon", "coordinates": [ [ [ [ 116.033333333299993, -3.4 ], [ 116.0, -3.4 ], [ 116.0, -3.366666666699928 ], [ 116.033333333299993, -3.366666666699928 ], [ 116.033333333299993, -3.4 ] ] ] ] } },
{ "type": "Feature", "properties": { "OBJECTID": 29, "MapID": "Zona10K_UTM", "GridName": "1812-0432C", "RevSym": "4", "SHAPE_Leng": 0.133333332, "SHAPE_Area": 0.00111111109, "Nama_NLP": "BATULICIN 2", "No_NLP": "58", "THN": 2025 }, "geometry": { "type": "MultiPolygon", "coordinates": [ [ [ [ 116.033333333299993, -3.43333333329997 ], [ 116.0, -3.43333333329997 ], [ 116.0, -3.4 ], [ 116.033333333299993, -3.4 ], [ 116.033333333299993, -3.43333333329997 ] ] ] ] } },
{ "type": "Feature", "properties": { "OBJECTID": 29, "MapID": "Zona10K_UTM", "GridName": "1812-0432D", "RevSym": "4", "SHAPE_Leng": 0.133333332, "SHAPE_Area": 0.00111111109, "Nama_NLP": "BATULICIN 3", "No_NLP": "57", "THN": 2025 }, "geometry": { "type": "MultiPolygon", "coordinates": [ [ [ [ 116.066666666700144, -3.43333333329997 ], [ 116.033333333299993, -3.43333333329997 ], [ 116.033333333299993, -3.4 ], [ 116.066666666700144, -3.4 ], [ 116.066666666700144, -3.43333333329997 ] ] ] ] } },
{ "type": "Feature", "properties": { "OBJECTID": 29, "MapID": "Zona10K_UTM", "GridName": "1812-0433C", "RevSym": "4", "SHAPE_Leng": 0.133333332, "SHAPE_Area": 0.00111111109, "Nama_NLP": "SELARU 2", "No_NLP": "56", "THN": 2025 }, "geometry": { "type": "MultiPolygon", "coordinates": [ [ [ [ 116.100000000000136, -3.43333333329997 ], [ 116.066666666700144, -3.43333333329997 ], [ 116.066666666700144, -3.4 ], [ 116.100000000000136, -3.4 ], [ 116.100000000000136, -3.43333333329997 ] ] ] ] } },
{ "type": "Feature", "properties": { "OBJECTID": 29, "MapID": "Zona10K_UTM", "GridName": "1812-0312A", "RevSym": "4", "SHAPE_Leng": 0.133333332, "SHAPE_Area": 0.00111111109, "Nama_NLP": "SUNGAIDUA 1", "No_NLP": "67", "THN": 2025 }, "geometry": { "type": "MultiPolygon", "coordinates": [ [ [ [ 116.100000000000136, -3.333333333300004 ], [ 116.066666666700144, -3.333333333300004 ], [ 116.066666666700144, -3.3 ], [ 116.100000000000136, -3.3 ], [ 116.100000000000136, -3.333333333300004 ] ] ] ] } },
{ "type": "Feature", "properties": { "OBJECTID": 29, "MapID": "Zona10K_UTM", "GridName": "1812-0435D", "RevSym": "4", "SHAPE_Leng": 0.133333332, "SHAPE_Area": 0.00111111109, "Nama_NLP": "PULAU BURUNG 3", "No_NLP": "64", "THN": 2025 }, "geometry": { "type": "MultiPolygon", "coordinates": [ [ [ [ 116.066666666700144, -3.366666666699928 ], [ 116.033333333299993, -3.366666666699928 ], [ 116.033333333299993, -3.333333332999985 ], [ 116.066666666700144, -3.333333333300004 ], [ 116.066666666700144, -3.366666666699928 ] ] ] ] } },
{ "type": "Feature", "properties": { "OBJECTID": 29, "MapID": "Zona10K_UTM", "GridName": "1812-0312B", "RevSym": "4", "SHAPE_Leng": 0.133333332, "SHAPE_Area": 0.00111111109, "Nama_NLP": "PANTAI BARU 2", "No_NLP": "66", "THN": 2025 }, "geometry": { "type": "MultiPolygon", "coordinates": [ [ [ [ 116.133333333300129, -3.333333333300004 ], [ 116.100000000000136, -3.333333333300004 ], [ 116.100000000000136, -3.3 ], [ 116.133333333300129, -3.3 ], [ 116.133333333300129, -3.333333333300004 ] ] ] ] } },
{ "type": "Feature", "properties": { "OBJECTID": 29, "MapID": "Zona10K_UTM", "GridName": "1812-0435C", "RevSym": "4", "SHAPE_Leng": 0.133333332, "SHAPE_Area": 0.00111111109, "Nama_NLP": "GUNUNGBESAR 2", "No_NLP": "65", "THN": 2025 }, "geometry": { "type": "MultiPolygon", "coordinates": [ [ [ [ 116.033333333299993, -3.366666666699928 ], [ 116.0, -3.366666666699928 ], [ 116.0, -3.333333333300004 ], [ 116.033333333299993, -3.333333333300004 ], [ 116.033333333299993, -3.366666666699928 ] ] ] ] } },
{ "type": "Feature", "properties": { "OBJECTID": 29, "MapID": "Zona10K_UTM", "GridName": "1812-0436C", "RevSym": "4", "SHAPE_Leng": 0.133333332, "SHAPE_Area": 0.00111111109, "Nama_NLP": "PULAU BURUNG 4", "No_NLP": "63", "THN": 2025 }, "geometry": { "type": "MultiPolygon", "coordinates": [ [ [ [ 116.100000000000136, -3.366666666699928 ], [ 116.066666666700144, -3.366666666699928 ], [ 116.066666666700144, -3.333333333300004 ], [ 116.100000000000136, -3.333333332999985 ], [ 116.100000000000136, -3.366666666699928 ] ] ] ] } },
{ "type": "Feature", "properties": { "OBJECTID": 29, "MapID": "Zona10K_UTM", "GridName": "1812-0313C", "RevSym": "4", "SHAPE_Leng": 0.133333332, "SHAPE_Area": 0.00111111109, "Nama_NLP": "STAGEN 2", "No_NLP": "70", "THN": 2025 }, "geometry": { "type": "MultiPolygon", "coordinates": [ [ [ [ 116.166666666699939, -3.3 ], [ 116.133333333300129, -3.3 ], [ 116.133333333300129, -3.266666666699962 ], [ 116.166666666699939, -3.266666666699962 ], [ 116.166666666699939, -3.3 ] ] ] ] } },
{ "type": "Feature", "properties": { "OBJECTID": 29, "MapID": "Zona10K_UTM", "GridName": "1812-0316A", "RevSym": "4", "SHAPE_Leng": 0.133333332, "SHAPE_Area": 0.00111111109, "Nama_NLP": "LANGADAI 2", "No_NLP": "75", "THN": 2025 }, "geometry": { "type": "MultiPolygon", "coordinates": [ [ [ [ 116.166666666699939, -3.266666666699962 ], [ 116.133333333300129, -3.266666666699962 ], [ 116.133333333300129, -3.233333333299981 ], [ 116.166666666699939, -3.233333333299981 ], [ 116.166666666699939, -3.266666666699962 ] ] ] ] } },
{ "type": "Feature", "properties": { "OBJECTID": 29, "MapID": "Zona10K_UTM", "GridName": "1812-0323D", "RevSym": "4", "SHAPE_Leng": 0.133333332, "SHAPE_Area": 0.00111111109, "Nama_NLP": "STAGEN 1", "No_NLP": "69", "THN": 2025 }, "geometry": { "type": "MultiPolygon", "coordinates": [ [ [ [ 116.2, -3.3 ], [ 116.166666666699939, -3.3 ], [ 116.166666666699939, -3.266666666699962 ], [ 116.2, -3.266666666699962 ], [ 116.2, -3.3 ] ] ] ] } },
{ "type": "Feature", "properties": { "OBJECTID": 29, "MapID": "Zona10K_UTM", "GridName": "1812-0326B", "RevSym": "4", "SHAPE_Leng": 0.133333332, "SHAPE_Area": 0.00111111109, "Nama_NLP": "LANGADAI 1", "No_NLP": "74", "THN": 2025 }, "geometry": { "type": "MultiPolygon", "coordinates": [ [ [ [ 116.2, -3.266666666699962 ], [ 116.166666666699939, -3.266666666699962 ], [ 116.166666666699939, -3.233333333299981 ], [ 116.2, -3.233333333299981 ], [ 116.2, -3.266666666699962 ] ] ] ] } },
{ "type": "Feature", "properties": { "OBJECTID": 29, "MapID": "Zona10K_UTM", "GridName": "1812-0323A", "RevSym": "4", "SHAPE_Leng": 0.133333332, "SHAPE_Area": 0.00111111109, "Nama_NLP": "SEMAYAP", "No_NLP": "73", "THN": 2025 }, "geometry": { "type": "MultiPolygon", "coordinates": [ [ [ [ 116.233333333300038, -3.266666666699962 ], [ 116.2, -3.266666666699962 ], [ 116.2, -3.233333333299981 ], [ 116.233333333300038, -3.233333333299981 ], [ 116.233333333300038, -3.266666666699962 ] ] ] ] } },
{ "type": "Feature", "properties": { "OBJECTID": 29, "MapID": "Zona10K_UTM", "GridName": "1812-0326B", "RevSym": "4", "SHAPE_Leng": 0.133333332, "SHAPE_Area": 0.00111111109, "Nama_NLP": "PANTAI 1", "No_NLP": "81", "THN": 2025 }, "geometry": { "type": "MultiPolygon", "coordinates": [ [ [ [ 116.2, -3.2 ], [ 116.166666666699939, -3.2 ], [ 116.166666666699939, -3.166666666699939 ], [ 116.2, -3.166666666699939 ], [ 116.2, -3.2 ] ] ] ] } },
{ "type": "Feature", "properties": { "OBJECTID": 29, "MapID": "Zona10K_UTM", "GridName": "1812-0326D", "RevSym": "4", "SHAPE_Leng": 0.133333332, "SHAPE_Area": 0.00111111109, "Nama_NLP": "LANGADAI 3", "No_NLP": "78", "THN": 2025 }, "geometry": { "type": "MultiPolygon", "coordinates": [ [ [ [ 116.2, -3.233333333299981 ], [ 116.166666666699939, -3.233333333299981 ], [ 116.166666666699939, -3.2 ], [ 116.2, -3.2 ], [ 116.2, -3.233333333299981 ] ] ] ] } },
{ "type": "Feature", "properties": { "OBJECTID": 29, "MapID": "Zona10K_UTM", "GridName": "1812-0323D", "RevSym": "4", "SHAPE_Leng": 0.133333332, "SHAPE_Area": 0.00111111109, "Nama_NLP": "SIGAM 1", "No_NLP": "76", "THN": 2025 }, "geometry": { "type": "MultiPolygon", "coordinates": [ [ [ [ 116.266666666700075, -3.233333333299981 ], [ 116.233333333300038, -3.233333333299981 ], [ 116.233333333300038, -3.2 ], [ 116.266666666700075, -3.2 ], [ 116.266666666700075, -3.233333333299981 ] ] ] ] } },
{ "type": "Feature", "properties": { "OBJECTID": 29, "MapID": "Zona10K_UTM", "GridName": "1812-0323A", "RevSym": "4", "SHAPE_Leng": 0.133333332, "SHAPE_Area": 0.00111111109, "Nama_NLP": "PANTAI 2", "No_NLP": "80", "THN": 2025 }, "geometry": { "type": "MultiPolygon", "coordinates": [ [ [ [ 116.233333333300038, -3.2 ], [ 116.2, -3.2 ], [ 116.2, -3.166666666699939 ], [ 116.233333333300038, -3.166666666699939 ], [ 116.233333333300038, -3.2 ] ] ] ] } },
{ "type": "Feature", "properties": { "OBJECTID": 29, "MapID": "Zona10K_UTM", "GridName": "1812-0323C", "RevSym": "4", "SHAPE_Leng": 0.133333332, "SHAPE_Area": 0.00111111109, "Nama_NLP": "KOTABARU HILIR", "No_NLP": "77", "THN": 2025 }, "geometry": { "type": "MultiPolygon", "coordinates": [ [ [ [ 116.233333333300038, -3.233333333299981 ], [ 116.2, -3.233333333299981 ], [ 116.2, -3.2 ], [ 116.233333333300038, -3.2 ], [ 116.233333333300038, -3.233333333299981 ] ] ] ] } },
{ "type": "Feature", "properties": { "OBJECTID": 29, "MapID": "Zona10K_UTM", "GridName": "1812-0223D", "RevSym": "4", "SHAPE_Leng": 0.133333332, "SHAPE_Area": 0.00111111109, "Nama_NLP": "SEPAGAR 1", "No_NLP": "31", "THN": 2025 }, "geometry": { "type": "MultiPolygon", "coordinates": [ [ [ [ 116.066666666700144, -3.9 ], [ 116.033333333299993, -3.9 ], [ 116.033333333299993, -3.866666666699984 ], [ 116.066666666700144, -3.866666666699984 ], [ 116.066666666700144, -3.9 ] ] ] ] } },
{ "type": "Feature", "properties": { "OBJECTID": 29, "MapID": "Zona10K_UTM", "GridName": "1812-0242A", "RevSym": "4", "SHAPE_Leng": 0.133333332, "SHAPE_Area": 0.00111111109, "Nama_NLP": "TERANGKIH 1", "No_NLP": "34", "THN": 2025 }, "geometry": { "type": "MultiPolygon", "coordinates": [ [ [ [ 116.100000000000136, -3.866666666699984 ], [ 116.066666666700144, -3.866666666699984 ], [ 116.066666666700144, -3.833333333300004 ], [ 116.100000000000136, -3.833333333300004 ], [ 116.100000000000136, -3.866666666699984 ] ] ] ] } },
{ "type": "Feature", "properties": { "OBJECTID": 29, "MapID": "Zona10K_UTM", "GridName": "1812-0223C", "RevSym": "4", "SHAPE_Leng": 0.133333332, "SHAPE_Area": 0.00111111109, "Nama_NLP": "SEPAGAR 2", "No_NLP": "32", "THN": 2025 }, "geometry": { "type": "MultiPolygon", "coordinates": [ [ [ [ 116.033333333299993, -3.9 ], [ 116.0, -3.9 ], [ 116.0, -3.866666666699984 ], [ 116.033333333299993, -3.866666666699984 ], [ 116.033333333299993, -3.9 ] ] ] ] } },
{ "type": "Feature", "properties": { "OBJECTID": 29, "MapID": "Zona10K_UTM", "GridName": "1812-0241B", "RevSym": "4", "SHAPE_Leng": 0.133333332, "SHAPE_Area": 0.00111111109, "Nama_NLP": "TERANGKIH 2", "No_NLP": "35", "THN": 2025 }, "geometry": { "type": "MultiPolygon", "coordinates": [ [ [ [ 116.066666666700144, -3.866666666699984 ], [ 116.033333333299993, -3.866666666699984 ], [ 116.033333333299993, -3.833333333300004 ], [ 116.066666666700144, -3.833333333300004 ], [ 116.066666666700144, -3.866666666699984 ] ] ] ] } },
{ "type": "Feature", "properties": { "OBJECTID": 29, "MapID": "Zona10K_UTM", "GridName": "1812-0216C", "RevSym": "4", "SHAPE_Leng": 0.133333332, "SHAPE_Area": 0.00111111109, "Nama_NLP": "SEPAGAR 3", "No_NLP": "33", "THN": 2025 }, "geometry": { "type": "MultiPolygon", "coordinates": [ [ [ [ 116.0, -3.9 ], [ 115.966666666700007, -3.9 ], [ 115.966666666700007, -3.866666666699984 ], [ 116.0, -3.866666666699984 ], [ 116.0, -3.9 ] ] ] ] } },
{ "type": "Feature", "properties": { "OBJECTID": 29, "MapID": "Zona10K_UTM", "GridName": "1812-0241A", "RevSym": "4", "SHAPE_Leng": 0.133333332, "SHAPE_Area": 0.00111111109, "Nama_NLP": "TERANGKIH 3", "No_NLP": "36", "THN": 2025 }, "geometry": { "type": "MultiPolygon", "coordinates": [ [ [ [ 116.033333333299993, -3.866666666699984 ], [ 116.0, -3.866666666699984 ], [ 116.0, -3.833333333300004 ], [ 116.033333333299993, -3.833333333300004 ], [ 116.033333333299993, -3.866666666699984 ] ] ] ] } },
{ "type": "Feature", "properties": { "OBJECTID": 29, "MapID": "Zona10K_UTM", "GridName": "1812-0241C", "RevSym": "4", "SHAPE_Leng": 0.133333332, "SHAPE_Area": 0.00111111109, "Nama_NLP": "SEMARAS 3", "No_NLP": "40", "THN": 2025 }, "geometry": { "type": "MultiPolygon", "coordinates": [ [ [ [ 116.033333333299993, -3.833333333300004 ], [ 116.0, -3.833333333300004 ], [ 116.0, -3.8 ], [ 116.033333333299993, -3.8 ], [ 116.033333333299993, -3.833333333300004 ] ] ] ] } },
{ "type": "Feature", "properties": { "OBJECTID": 29, "MapID": "Zona10K_UTM", "GridName": "1812-0241D", "RevSym": "4", "SHAPE_Leng": 0.133333332, "SHAPE_Area": 0.00111111109, "Nama_NLP": "SEMARAS 2", "No_NLP": "39", "THN": 2025 }, "geometry": { "type": "MultiPolygon", "coordinates": [ [ [ [ 116.066666666700144, -3.833333333300004 ], [ 116.033333333299993, -3.833333333300004 ], [ 116.033333333299993, -3.8 ], [ 116.066666666700144, -3.8 ], [ 116.066666666700144, -3.833333333300004 ] ] ] ] } },
{ "type": "Feature", "properties": { "OBJECTID": 29, "MapID": "Zona10K_UTM", "GridName": "1812-0233C", "RevSym": "4", "SHAPE_Leng": 0.133333332, "SHAPE_Area": 0.00111111109, "Nama_NLP": "SEMARAS 4", "No_NLP": "41", "THN": 2025 }, "geometry": { "type": "MultiPolygon", "coordinates": [ [ [ [ 116.0, -3.833333333300004 ], [ 115.966666666700007, -3.833333333300004 ], [ 115.966666666700007, -3.8 ], [ 116.0, -3.8 ], [ 116.0, -3.833333333300004 ] ] ] ] } },
{ "type": "Feature", "properties": { "OBJECTID": 29, "MapID": "Zona10K_UTM", "GridName": "1812-0312D", "RevSym": "4", "SHAPE_Leng": 0.133333332, "SHAPE_Area": 0.00111111109, "Nama_NLP": "TARJUN", "No_NLP": "71", "THN": 2025 }, "geometry": { "type": "MultiPolygon", "coordinates": [ [ [ [ 116.133333333300129, -3.3 ], [ 116.100000000000136, -3.3 ], [ 116.100000000000136, -3.266666666699962 ], [ 116.133333333300129, -3.266666666699962 ], [ 116.133333333300129, -3.3 ] ] ] ] } },
{ "type": "Feature", "properties": { "OBJECTID": 29, "MapID": "Zona10K_UTM", "GridName": "1812-0312C", "RevSym": "4", "SHAPE_Leng": 0.133333332, "SHAPE_Area": 0.00111111109, "Nama_NLP": "BATU AMPAR", "No_NLP": "72", "THN": 2025 }, "geometry": { "type": "MultiPolygon", "coordinates": [ [ [ [ 116.100000000000136, -3.3 ], [ 116.066666666700144, -3.3 ], [ 116.066666666700144, -3.266666666699962 ], [ 116.100000000000136, -3.266666666699962 ], [ 116.100000000000136, -3.3 ] ] ] ] } },
{ "type": "Feature", "properties": { "OBJECTID": 29, "MapID": "Zona10K_UTM", "GridName": "1811-0331A", "RevSym": "4", "SHAPE_Leng": 0.133333332, "SHAPE_Area": 0.00111111109, "Nama_NLP": "TANJUNG KUNYIT 7", "No_NLP": "04", "THN": 2025 }, "geometry": { "type": "MultiPolygon", "coordinates": [ [ [ [ 116.0, -4.166666666699996 ], [ 115.966666666700007, -4.166666666699996 ], [ 115.966666666700007, -4.133333333300016 ], [ 116.0, -4.133333333300016 ], [ 116.0, -4.166666666699996 ] ] ] ] } },
{ "type": "Feature", "properties": { "OBJECTID": 29, "MapID": "Zona10K_UTM", "GridName": "1812-0216A", "RevSym": "4", "SHAPE_Leng": 0.133333332, "SHAPE_Area": 0.00111111109, "Nama_NLP": "SEBANTI 4", "No_NLP": "30", "THN": 2025 }, "geometry": { "type": "MultiPolygon", "coordinates": [ [ [ [ 116.0, -3.933333333300027 ], [ 115.966666666700007, -3.933333333300027 ], [ 115.966666666700007, -3.9 ], [ 116.0, -3.9 ], [ 116.0, -3.933333333300027 ] ] ] ] } },
{ "type": "Feature", "properties": { "OBJECTID": 29, "MapID": "Zona10K_UTM", "GridName": "1812-0233A", "RevSym": "4", "SHAPE_Leng": 0.133333332, "SHAPE_Area": 0.00111111109, "Nama_NLP": "TERANGKIH 4", "No_NLP": "37", "THN": 2025 }, "geometry": { "type": "MultiPolygon", "coordinates": [ [ [ [ 116.0, -3.866666666699984 ], [ 115.966666666700007, -3.866666666699984 ], [ 115.966666666700007, -3.833333333300004 ], [ 116.0, -3.833333333300004 ], [ 116.0, -3.866666666699984 ] ] ] ] } },
{ "type": "Feature", "properties": { "OBJECTID": 29, "MapID": "Zona10K_UTM", "GridName": "1812-0242C", "RevSym": "4", "SHAPE_Leng": 0.133333332, "SHAPE_Area": 0.00111111109, "Nama_NLP": "SEMARAS 1", "No_NLP": "38", "THN": 2025 }, "geometry": { "type": "MultiPolygon", "coordinates": [ [ [ [ 116.100000000000136, -3.833333333300004 ], [ 116.066666666700144, -3.833333333300004 ], [ 116.066666666700144, -3.8 ], [ 116.100000000000136, -3.8 ], [ 116.100000000000136, -3.833333333300004 ] ] ] ] } },
{ "type": "Feature", "properties": { "OBJECTID": 29, "MapID": "Zona10K_UTM", "GridName": "1812-0441C", "RevSym": "4", "SHAPE_Leng": 0.133333332, "SHAPE_Area": 0.00111111109, "Nama_NLP": "PANTAI BARU 1", "No_NLP": "62", "THN": 2025 }, "geometry": { "type": "MultiPolygon", "coordinates": [ [ [ [ 116.133333333300129, -3.366666666699928 ], [ 116.100000000000136, -3.366666666699928 ], [ 116.100000000000136, -3.333333333300004 ], [ 116.133333333300129, -3.333333333300004 ], [ 116.133333333300129, -3.366666666699928 ] ] ] ] } },
{ "type": "Feature", "properties": { "OBJECTID": 29, "MapID": "Zona10K_UTM", "GridName": "1812-0311B", "RevSym": "4", "SHAPE_Leng": 0.133333332, "SHAPE_Area": 0.00111111109, "Nama_NLP": "SUNGAIDUA 2", "No_NLP": "68", "THN": 2025 }, "geometry": { "type": "MultiPolygon", "coordinates": [ [ [ [ 116.066666666700144, -3.333333333300004 ], [ 116.033333333299993, -3.333333333300004 ], [ 116.033333333299993, -3.3 ], [ 116.066666666700144, -3.3 ], [ 116.066666666700144, -3.333333333300004 ] ] ] ] } },
{ "type": "Feature", "properties": { "OBJECTID": 29, "MapID": "Zona10K_UTM", "GridName": "1812-0323B", "RevSym": "4", "SHAPE_Leng": 0.133333332, "SHAPE_Area": 0.00111111109, "Nama_NLP": "SIGAM 2", "No_NLP": "79", "THN": 2025 }, "geometry": { "type": "MultiPolygon", "coordinates": [ [ [ [ 116.266666666700075, -3.2 ], [ 116.233333333300152, -3.2 ], [ 116.233333333300152, -3.166666666699882 ], [ 116.266666666700075, -3.166666666699882 ], [ 116.266666666700075, -3.2 ] ] ] ] } },
{ "type": "Feature", "properties": { "OBJECTID": 29, "MapID": "Zona10K_UTM", "GridName": "1812-0416A", "RevSym": "4", "SHAPE_Leng": 0.133333332, "SHAPE_Area": 0.00111111109, "Nama_NLP": "KERSIK PUTIH 1", "No_NLP": "49", "THN": 2025 }, "geometry": { "type": "MultiPolygon", "coordinates": [ [ [ [ 116.033333333300106, -3.533333333299936 ], [ 116.000000000000114, -3.533333333299936 ], [ 116.000000000000114, -3.5 ], [ 116.033333333300106, -3.5 ], [ 116.033333333300106, -3.533333333299936 ] ] ] ] } },
{ "type": "Feature", "properties": { "OBJECTID": 29, "MapID": "Zona10K_UTM", "GridName": "1812-0416B", "RevSym": "4", "SHAPE_Leng": 0.133333332, "SHAPE_Area": 0.00111111109, "Nama_NLP": "SALINO 2", "No_NLP": "48", "THN": 2025 }, "geometry": { "type": "MultiPolygon", "coordinates": [ [ [ [ 116.066666666700257, -3.533333333299936 ], [ 116.033333333300106, -3.533333333299936 ], [ 116.033333333300106, -3.5 ], [ 116.066666666700257, -3.5 ], [ 116.066666666700257, -3.533333333299936 ] ] ] ] } },
{ "type": "Feature", "properties": { "OBJECTID": 29, "MapID": "Zona10K_UTM", "GridName": "1812-0412C", "RevSym": "4", "SHAPE_Leng": 0.133333332, "SHAPE_Area": 0.00111111109, "Nama_NLP": "SEPUNGGUR 1", "No_NLP": "46", "THN": 2025 }, "geometry": { "type": "MultiPolygon", "coordinates": [ [ [ [ 116.033333333300106, -3.566666666699916 ], [ 116.000000000000114, -3.566666666699916 ], [ 116.000000000000114, -3.533333333299936 ], [ 116.033333333300106, -3.533333333299936 ], [ 116.033333333300106, -3.566666666699916 ] ] ] ] } },
{ "type": "Feature", "properties": { "OBJECTID": 29, "MapID": "Zona10K_UTM", "GridName": "1812-0412D", "RevSym": "4", "SHAPE_Leng": 0.133333332, "SHAPE_Area": 0.00111111109, "Nama_NLP": "SALINO 1", "No_NLP": "45", "THN": 2025 }, "geometry": { "type": "MultiPolygon", "coordinates": [ [ [ [ 116.066666666700257, -3.566666666699916 ], [ 116.033333333300106, -3.566666666699916 ], [ 116.033333333300106, -3.533333333299936 ], [ 116.066666666700257, -3.533333333299936 ], [ 116.066666666700257, -3.566666666699916 ] ] ] ] } },
{ "type": "Feature", "properties": { "OBJECTID": 29, "MapID": "Zona10K_UTM", "GridName": "1812-0412A", "RevSym": "4", "SHAPE_Leng": 0.133333332, "SHAPE_Area": 0.00111111109, "Nama_NLP": "SUNGAI PASIR 2", "No_NLP": "43", "THN": 2025 }, "geometry": { "type": "MultiPolygon", "coordinates": [ [ [ [ 116.033333333300106, -3.6 ], [ 116.000000000000114, -3.6 ], [ 116.000000000000114, -3.566666666699916 ], [ 116.033333333300106, -3.566666666699916 ], [ 116.033333333300106, -3.6 ] ] ] ] } },
{ "type": "Feature", "properties": { "OBJECTID": 29, "MapID": "Zona10K_UTM", "GridName": "1812-0412B", "RevSym": "4", "SHAPE_Leng": 0.133333332, "SHAPE_Area": 0.00111111109, "Nama_NLP": "SUNGAI PASIR", "No_NLP": "42", "THN": 2025 }, "geometry": { "type": "MultiPolygon", "coordinates": [ [ [ [ 116.066666666700257, -3.6 ], [ 116.033333333300106, -3.6 ], [ 116.033333333300106, -3.566666666699916 ], [ 116.066666666700257, -3.566666666699916 ], [ 116.066666666700257, -3.6 ] ] ] ] } },
{ "type": "Feature", "properties": { "OBJECTID": 29, "MapID": "Zona10K_UTM", "GridName": "1812-0415B", "RevSym": "4", "SHAPE_Leng": 0.133333332, "SHAPE_Area": 0.00111111109, "Nama_NLP": "SEPUNGGUR 3", "No_NLP": "50", "THN": 2025 }, "geometry": { "type": "MultiPolygon", "coordinates": [ [ [ [ 116.000000000000114, -3.533333333299936 ], [ 115.966666666700121, -3.533333333299936 ], [ 115.966666666700121, -3.5 ], [ 116.000000000000114, -3.5 ], [ 116.000000000000114, -3.533333333299936 ] ] ] ] } },
{ "type": "Feature", "properties": { "OBJECTID": 29, "MapID": "Zona10K_UTM", "GridName": "1812-0411D", "RevSym": "4", "SHAPE_Leng": 0.133333332, "SHAPE_Area": 0.00111111109, "Nama_NLP": "SEPUNGGUR 2", "No_NLP": "47", "THN": 2025 }, "geometry": { "type": "MultiPolygon", "coordinates": [ [ [ [ 116.000000000000114, -3.566666666699916 ], [ 115.966666666700121, -3.566666666699916 ], [ 115.966666666700121, -3.533333333299936 ], [ 116.000000000000114, -3.533333333299936 ], [ 116.000000000000114, -3.566666666699916 ] ] ] ] } },
{ "type": "Feature", "properties": { "OBJECTID": 29, "MapID": "Zona10K_UTM", "GridName": "1812-0411C", "RevSym": "4", "SHAPE_Leng": 0.133333332, "SHAPE_Area": 0.00111111109, "Nama_NLP": "MUARA PAGATAN", "No_NLP": "44", "THN": 2025 }, "geometry": { "type": "MultiPolygon", "coordinates": [ [ [ [ 116.000000000000114, -3.6 ], [ 115.966666666700121, -3.6 ], [ 115.966666666700121, -3.566666666699916 ], [ 116.000000000000114, -3.566666666699916 ], [ 116.000000000000114, -3.6 ] ] ] ] } }
]
}
