{
"type": "FeatureCollection",
"name": "LLN 500K",
"crs": { "type": "name", "properties": { "name": "urn:ogc:def:crs:OGC:1.3:CRS84" } },
"features": [
{ "type": "Feature", "properties": { "OBJECTID_1": 1, "OBJECTID": 1, "DTH": "ID74", "EDS": "1993", "JNP": "LLN", "JDP": "Maluku (termasuk Sulawesi Utara)", "NLP": "LLN29", "PRJ": "TM", "SKL": 500000, "PLK": "PT. Geotrav Bhuana Survey", "REV": "2008", "SHAPE_Leng": 15.334, "TE_LPI": "format data digital: Shapefile,Geodatabase", "Shape_Le_1": 15.334, "Shape_Area": 14.2515, "Jenis_Data": null, "Link_Data": null }, "geometry": { "type": "MultiPolygon", "coordinates": [ [ [ [ 124.167, -1.667 ], [ 124.167, 1.500000000000114 ], [ 128.667, 1.500000000000114 ], [ 128.667, -1.667 ], [ 124.167, -1.667 ] ] ] ] } },
{ "type": "Feature", "properties": { "OBJECTID_1": 2, "OBJECTID": 2, "DTH": "ID74", "EDS": "1993", "JNP": "LLN", "JDP": "Maluku (Pulau Buru)", "NLP": "LLN30", "PRJ": "TM", "SKL": 500000, "PLK": "PT. Geotrav Bhuana Survey", "REV": "2010", "SHAPE_Leng": 15.334, "TE_LPI": "format data digital: Shapefile,Geodatabase", "Shape_Le_1": 15.334, "Shape_Area": 14.2515, "Jenis_Data": null, "Link_Data": null }, "geometry": { "type": "MultiPolygon", "coordinates": [ [ [ [ 124.167, -4.667 ], [ 124.167, -1.499999999999886 ], [ 128.667, -1.499999999999886 ], [ 128.667, -4.667 ], [ 124.167, -4.667 ] ] ] ] } },
{ "type": "Feature", "properties": { "OBJECTID_1": 3, "OBJECTID": 3, "DTH": "ID74", "EDS": "1993", "JNP": "LLN", "JDP": "Maluku (P.P. Lucipara)", "NLP": "LLN31", "PRJ": "TM", "SKL": 500000, "PLK": "PT. Geotrav Bhuana Survey", "REV": "2010", "SHAPE_Leng": 15.334, "TE_LPI": "format data digital: Shapefile,Geodatabase", "Shape_Le_1": 15.334, "Shape_Area": 14.2515, "Jenis_Data": null, "Link_Data": null }, "geometry": { "type": "MultiPolygon", "coordinates": [ [ [ [ 124.167, -7.666999999999859 ], [ 124.167, -4.5 ], [ 128.667, -4.5 ], [ 128.667, -7.666999999999859 ], [ 124.167, -7.666999999999859 ] ] ] ] } },
{ "type": "Feature", "properties": { "OBJECTID_1": 4, "OBJECTID": 4, "DTH": "ID74", "EDS": "1993", "JNP": "LLN", "JDP": "Timor Timur (termasuk NTT dan Maluku)", "NLP": "LLN32", "PRJ": "TM", "SKL": 500000, "PLK": "PT. Geotrav Bhuana Survey", "REV": "2010", "SHAPE_Leng": 15.334, "TE_LPI": "format data digital: Shapefile,Geodatabase", "Shape_Le_1": 15.334, "Shape_Area": 14.2515, "Jenis_Data": null, "Link_Data": null }, "geometry": { "type": "MultiPolygon", "coordinates": [ [ [ [ 124.167, -10.666999999999859 ], [ 124.167, -7.5 ], [ 128.667, -7.5 ], [ 128.667, -10.666999999999859 ], [ 124.167, -10.666999999999859 ] ] ] ] } },
{ "type": "Feature", "properties": { "OBJECTID_1": 5, "OBJECTID": 5, "DTH": "ID74", "EDS": "1993", "JNP": "LLN", "JDP": "Maluku (termasuk Sulawesi Utara)", "NLP": "LLN33", "PRJ": "TM", "SKL": 500000, "PLK": "PT. Geotrav Bhuana Survey", "REV": "2009", "SHAPE_Leng": 15.334, "TE_LPI": "format data digital: Shapefile,Geodatabase", "Shape_Le_1": 15.334, "Shape_Area": 14.2515, "Jenis_Data": null, "Link_Data": null }, "geometry": { "type": "MultiPolygon", "coordinates": [ [ [ [ 127.0, 1.333 ], [ 127.0, 5.833000000000197 ], [ 130.167, 5.833000000000197 ], [ 130.167, 1.333 ], [ 127.0, 1.333 ] ] ] ] } },
{ "type": "Feature", "properties": { "OBJECTID_1": 6, "OBJECTID": 6, "DTH": "ID74", "EDS": "1993", "JNP": "LLN", "JDP": "Irian Jaya (termasuk Maluku)", "NLP": "LLN34", "PRJ": "TM", "SKL": 500000, "PLK": "PT. Geotrav Bhuana Survey", "REV": "2009", "SHAPE_Leng": 15.332, "TE_LPI": "format data digital: Shapefile,Geodatabase", "Shape_Le_1": 15.332, "Shape_Area": 14.247, "Jenis_Data": null, "Link_Data": null }, "geometry": { "type": "MultiPolygon", "coordinates": [ [ [ [ 128.500000000000114, -0.332999999999856 ], [ 128.500000000000114, 2.833 ], [ 133.000000000000114, 2.833 ], [ 133.000000000000114, -0.332999999999856 ], [ 128.500000000000114, -0.332999999999856 ] ] ] ] } },
{ "type": "Feature", "properties": { "OBJECTID_1": 7, "OBJECTID": 7, "DTH": "ID74", "EDS": "1993", "JNP": "LLN", "JDP": "Irian Jaya (termasuk Maluku)", "NLP": "LLN35", "PRJ": "TM", "SKL": 500000, "PLK": "PT. Geotrav Bhuana Survey", "REV": "2009", "SHAPE_Leng": 15.332, "TE_LPI": "format data digital: Shapefile,Geodatabase", "Shape_Le_1": 15.332, "Shape_Area": 14.247, "Jenis_Data": null, "Link_Data": null }, "geometry": { "type": "MultiPolygon", "coordinates": [ [ [ [ 128.500000000000114, -3.332999999999799 ], [ 128.500000000000114, -0.167 ], [ 133.000000000000114, -0.167 ], [ 133.000000000000114, -3.332999999999799 ], [ 128.500000000000114, -3.332999999999799 ] ] ] ] } },
{ "type": "Feature", "properties": { "OBJECTID_1": 8, "OBJECTID": 8, "DTH": "ID74", "EDS": "1993", "JNP": "LLN", "JDP": "Maluku (termasuk Irian Jaya)", "NLP": "LLN36", "PRJ": "TM", "SKL": 500000, "PLK": "PT. Geotrav Bhuana Survey", "REV": "2010", "SHAPE_Leng": 15.332, "TE_LPI": "format data digital: Shapefile,Geodatabase", "Shape_Le_1": 15.332, "Shape_Area": 14.247, "Jenis_Data": null, "Link_Data": null }, "geometry": { "type": "MultiPolygon", "coordinates": [ [ [ [ 128.500000000000114, -6.333 ], [ 128.500000000000114, -3.166999999999859 ], [ 133.000000000000114, -3.166999999999859 ], [ 133.000000000000114, -6.333 ], [ 128.500000000000114, -6.333 ] ] ] ] } },
{ "type": "Feature", "properties": { "OBJECTID_1": 9, "OBJECTID": 9, "DTH": "ID74", "EDS": "1993", "JNP": "LLN", "JDP": "Maluku (P.P. Tanimbar)", "NLP": "LLN37", "PRJ": "TM", "SKL": 500000, "PLK": "PT. Geotrav Bhuana Survey", "REV": "2010", "SHAPE_Leng": 15.332, "TE_LPI": "format data digital: Shapefile,Geodatabase", "Shape_Le_1": 15.332, "Shape_Area": 14.247, "Jenis_Data": null, "Link_Data": null }, "geometry": { "type": "MultiPolygon", "coordinates": [ [ [ [ 128.500000000000114, -9.333 ], [ 128.500000000000114, -6.166999999999803 ], [ 133.000000000000114, -6.166999999999803 ], [ 133.000000000000114, -9.333 ], [ 128.500000000000114, -9.333 ] ] ] ] } },
{ "type": "Feature", "properties": { "OBJECTID_1": 10, "OBJECTID": 10, "DTH": "ID74", "EDS": "1993", "JNP": "LLN", "JDP": "Irian Jaya (P. Biak/Manokwari)", "NLP": "LLN38", "PRJ": "TM", "SKL": 500000, "PLK": "PT. Geotrav Bhuana Survey", "REV": "2009", "SHAPE_Leng": 15.334, "TE_LPI": "format data digital: Shapefile,Geodatabase", "Shape_Le_1": 15.334, "Shape_Area": 14.2515, "Jenis_Data": null, "Link_Data": null }, "geometry": { "type": "MultiPolygon", "coordinates": [ [ [ [ 132.833000000000197, -1.167 ], [ 132.833000000000197, 2.0 ], [ 137.333000000000197, 2.0 ], [ 137.333000000000197, -1.167 ], [ 132.833000000000197, -1.167 ] ] ] ] } },
{ "type": "Feature", "properties": { "OBJECTID_1": 11, "OBJECTID": 11, "DTH": "ID74", "EDS": "1993", "JNP": "LLN", "JDP": "Irian Jaya (Teluk Irian)", "NLP": "LLN39", "PRJ": "TM", "SKL": 500000, "PLK": "PT. Geotrav Bhuana Survey", "REV": "2009", "SHAPE_Leng": 15.334, "TE_LPI": "format data digital: Shapefile,Geodatabase", "Shape_Le_1": 15.334, "Shape_Area": 14.2515, "Jenis_Data": null, "Link_Data": null }, "geometry": { "type": "MultiPolygon", "coordinates": [ [ [ [ 132.833000000000197, -4.167 ], [ 132.833000000000197, -1.0 ], [ 137.333000000000197, -1.0 ], [ 137.333000000000197, -4.167 ], [ 132.833000000000197, -4.167 ] ] ] ] } },
{ "type": "Feature", "properties": { "OBJECTID_1": 12, "OBJECTID": 12, "DTH": "ID74", "EDS": "1993", "JNP": "LLN", "JDP": "Maluku (termasuk Irian Jaya)", "NLP": "LLN40", "PRJ": "TM", "SKL": 500000, "PLK": "PT. Geotrav Bhuana Survey", "REV": "2009", "SHAPE_Leng": 15.334, "TE_LPI": "format data digital: Shapefile,Geodatabase", "Shape_Le_1": 15.334, "Shape_Area": 14.2515, "Jenis_Data": null, "Link_Data": null }, "geometry": { "type": "MultiPolygon", "coordinates": [ [ [ [ 132.833000000000197, -7.166999999999859 ], [ 132.833000000000197, -4.0 ], [ 137.333000000000197, -4.0 ], [ 137.333000000000197, -7.166999999999859 ], [ 132.833000000000197, -7.166999999999859 ] ] ] ] } },
{ "type": "Feature", "properties": { "OBJECTID_1": 13, "OBJECTID": 13, "DTH": "ID74", "EDS": "1993", "JNP": "LLN", "JDP": "Maluku (Laut Arafuru)", "NLP": "LLN41", "PRJ": "TM", "SKL": 500000, "PLK": "PT. Geotrav Bhuana Survey", "REV": "2010", "SHAPE_Leng": 15.332, "TE_LPI": "format data digital: Shapefile,Geodatabase", "Shape_Le_1": 15.332, "Shape_Area": 14.247, "Jenis_Data": null, "Link_Data": null }, "geometry": { "type": "MultiPolygon", "coordinates": [ [ [ [ 132.833000000000197, -9.333 ], [ 132.833000000000197, -6.166999999999803 ], [ 137.333000000000197, -6.166999999999803 ], [ 137.333000000000197, -9.333 ], [ 132.833000000000197, -9.333 ] ] ] ] } },
{ "type": "Feature", "properties": { "OBJECTID_1": 14, "OBJECTID": 14, "DTH": "ID74", "EDS": "1993", "JNP": "LLN", "JDP": "Irian Jaya (Jayapura)", "NLP": "LLN42", "PRJ": "TM", "SKL": 500000, "PLK": "PT. Geotrav Bhuana Survey", "REV": "2009", "SHAPE_Leng": 15.332, "TE_LPI": "format data digital: Shapefile,Geodatabase", "Shape_Le_1": 15.332, "Shape_Area": 14.247, "Jenis_Data": null, "Link_Data": null }, "geometry": { "type": "MultiPolygon", "coordinates": [ [ [ [ 137.167, -3.832999999999856 ], [ 137.167, -0.667 ], [ 141.667, -0.667 ], [ 141.667, -3.832999999999856 ], [ 137.167, -3.832999999999856 ] ] ] ] } },
{ "type": "Feature", "properties": { "OBJECTID_1": 15, "OBJECTID": 15, "DTH": "ID74", "EDS": "1993", "JNP": "LLN", "JDP": "Irian Jaya (Wamena)", "NLP": "LLN43", "PRJ": "TM", "SKL": 500000, "PLK": "PT. Geotrav Bhuana Survey", "REV": "2009", "SHAPE_Leng": 15.332, "TE_LPI": "format data digital: Shapefile,Geodatabase", "Shape_Le_1": 15.332, "Shape_Area": 14.247, "Jenis_Data": null, "Link_Data": null }, "geometry": { "type": "MultiPolygon", "coordinates": [ [ [ [ 137.167, -6.833 ], [ 137.167, -3.667 ], [ 141.667, -3.667 ], [ 141.667, -6.833 ], [ 137.167, -6.833 ] ] ] ] } },
{ "type": "Feature", "properties": { "OBJECTID_1": 16, "OBJECTID": 16, "DTH": "ID74", "EDS": "1993", "JNP": "LLN", "JDP": "Irian Jaya (Merauke)", "NLP": "LLN44", "PRJ": "TM", "SKL": 500000, "PLK": "PT. Geotrav Bhuana Survey", "REV": "2009", "SHAPE_Leng": 15.332, "TE_LPI": "format data digital: Shapefile,Geodatabase", "Shape_Le_1": 15.332, "Shape_Area": 14.247, "Jenis_Data": null, "Link_Data": null }, "geometry": { "type": "MultiPolygon", "coordinates": [ [ [ [ 137.167, -9.833 ], [ 137.167, -6.666999999999859 ], [ 141.667, -6.666999999999859 ], [ 141.667, -9.833 ], [ 137.167, -9.833 ] ] ] ] } },
{ "type": "Feature", "properties": { "OBJECTID_1": 17, "OBJECTID": 17, "DTH": "ID74", "EDS": "1992", "JNP": "LLN", "JDP": "Kalimantan Timur", "NLP": "LLN18", "PRJ": "TM", "SKL": 500000, "PLK": "PT. Geotrav Bhuana Survey", "REV": "2008", "SHAPE_Leng": 15.332, "TE_LPI": "format data digital: Shapefile,Geodatabase", "Shape_Le_1": 15.332, "Shape_Area": 14.247, "Jenis_Data": null, "Link_Data": null }, "geometry": { "type": "MultiPolygon", "coordinates": [ [ [ [ 115.5, 1.167 ], [ 115.5, 4.333000000000141 ], [ 120.0, 4.333000000000141 ], [ 120.0, 1.167 ], [ 115.5, 1.167 ] ] ] ] } },
{ "type": "Feature", "properties": { "OBJECTID_1": 18, "OBJECTID": 18, "DTH": "ID74", "EDS": "1992", "JNP": "LLN", "JDP": "Kalimantan Timur (termasuk Kalimantan Selatan, Sulawesi Tenggara dan Sulawesi Selatan)", "NLP": "LLN19", "PRJ": "TM", "SKL": 500000, "PLK": "PT. Geotrav Bhuana Survey", "REV": "2006", "SHAPE_Leng": 15.332, "TE_LPI": "format data digital: Mapinfo", "Shape_Le_1": 15.332, "Shape_Area": 14.247, "Jenis_Data": null, "Link_Data": null }, "geometry": { "type": "MultiPolygon", "coordinates": [ [ [ [ 115.5, -1.833 ], [ 115.5, 1.333 ], [ 120.0, 1.333 ], [ 120.0, -1.833 ], [ 115.5, -1.833 ] ] ] ] } },
{ "type": "Feature", "properties": { "OBJECTID_1": 19, "OBJECTID": 19, "DTH": "ID74", "EDS": "1992", "JNP": "LLN", "JDP": "Sulawesi Selatan (termasuk Kalimantan Selatan, Kalimantan Timur dan Sulawesi Tenggara)", "NLP": "LLN20", "PRJ": "TM", "SKL": 500000, "PLK": "PT. Geotrav Bhuana Survey", "REV": "2006", "SHAPE_Leng": 15.332, "TE_LPI": "format data digital: Mapinfo", "Shape_Le_1": 15.332, "Shape_Area": 14.247, "Jenis_Data": null, "Link_Data": null }, "geometry": { "type": "MultiPolygon", "coordinates": [ [ [ [ 115.5, -4.832999999999856 ], [ 115.5, -1.667 ], [ 120.0, -1.667 ], [ 120.0, -4.832999999999856 ], [ 115.5, -4.832999999999856 ] ] ] ] } },
{ "type": "Feature", "properties": { "OBJECTID_1": 20, "OBJECTID": 20, "DTH": "ID74", "EDS": "1992", "JNP": "LLN", "JDP": "Sulawesi Selatan (termasuk Jawa Timur)", "NLP": "LLN21", "PRJ": "TM", "SKL": 500000, "PLK": "PT. Geotrav Bhuana Survey", "REV": "2006", "SHAPE_Leng": 15.332666666, "TE_LPI": "format data digital: Mapinfo", "Shape_Le_1": 15.332666666, "Shape_Area": 14.2484999985, "Jenis_Data": null, "Link_Data": null }, "geometry": { "type": "MultiPolygon", "coordinates": [ [ [ [ 115.5, -7.832999999999856 ], [ 115.5, -4.666666666999959 ], [ 120.0, -4.666666666999959 ], [ 120.0, -7.832999999999856 ], [ 115.5, -7.832999999999856 ] ] ] ] } },
{ "type": "Feature", "properties": { "OBJECTID_1": 21, "OBJECTID": 21, "DTH": "ID74", "EDS": "1992", "JNP": "LLN", "JDP": "Nusatenggara Barat (Termasuk NTT)", "NLP": "LLN22", "PRJ": "TM", "SKL": 500000, "PLK": "PT. Geotrav Bhuana Survey", "REV": "2006", "SHAPE_Leng": 15.332, "TE_LPI": "format data digital: Mapinfo", "Shape_Le_1": 15.332, "Shape_Area": 14.247, "Jenis_Data": null, "Link_Data": null }, "geometry": { "type": "MultiPolygon", "coordinates": [ [ [ [ 115.5, -10.833 ], [ 115.5, -7.666999999999859 ], [ 120.0, -7.666999999999859 ], [ 120.0, -10.833 ], [ 115.5, -10.833 ] ] ] ] } },
{ "type": "Feature", "properties": { "OBJECTID_1": 22, "OBJECTID": 22, "DTH": "ID74", "EDS": "1993", "JNP": "LLN", "JDP": "Sulawesi Utara (termasuk Sulawesi Tengah)", "NLP": "LLN23", "PRJ": "TM", "SKL": 500000, "PLK": "PT. Geotrav Bhuana Survey", "REV": "2008", "SHAPE_Leng": 15.334, "TE_LPI": "format data digital: Shapefile,Geodatabase", "Shape_Le_1": 15.334, "Shape_Area": 14.2515, "Jenis_Data": null, "Link_Data": null }, "geometry": { "type": "MultiPolygon", "coordinates": [ [ [ [ 119.833, 0.0 ], [ 119.833, 3.167 ], [ 124.333, 3.167 ], [ 124.333, 0.0 ], [ 119.833, 0.0 ] ] ] ] } },
{ "type": "Feature", "properties": { "OBJECTID_1": 23, "OBJECTID": 23, "DTH": "ID74", "EDS": "1993", "JNP": "LLN", "JDP": "Sulawesi Tengah (termasuk sulawesi Selatan dan Sulawesi Tenggara)", "NLP": "LLN24", "PRJ": "TM", "SKL": 500000, "PLK": "PT. Geotrav Bhuana Survey", "REV": "2008", "SHAPE_Leng": 15.334, "TE_LPI": "format data digital: Shapefile,Geodatabase", "Shape_Le_1": 15.334, "Shape_Area": 14.2515, "Jenis_Data": null, "Link_Data": null }, "geometry": { "type": "MultiPolygon", "coordinates": [ [ [ [ 119.833, -3.0 ], [ 119.833, 0.167000000000144 ], [ 124.333, 0.167000000000144 ], [ 124.333, -3.0 ], [ 119.833, -3.0 ] ] ] ] } },
{ "type": "Feature", "properties": { "OBJECTID_1": 24, "OBJECTID": 24, "DTH": "ID74", "EDS": "1993", "JNP": "LLN", "JDP": "Sulawesi Tenggara (termasuk Sulawesi Selatan)", "NLP": "LLN25", "PRJ": "TM", "SKL": 500000, "PLK": "PT. Geotrav Bhuana Survey", "REV": "2008", "SHAPE_Leng": 15.334, "TE_LPI": "format data digital: Shapefile,Geodatabase", "Shape_Le_1": 15.334, "Shape_Area": 14.2515, "Jenis_Data": null, "Link_Data": null }, "geometry": { "type": "MultiPolygon", "coordinates": [ [ [ [ 119.833, -5.999999999999886 ], [ 119.833, -2.833 ], [ 124.333, -2.833 ], [ 124.333, -5.999999999999886 ], [ 119.833, -5.999999999999886 ] ] ] ] } },
{ "type": "Feature", "properties": { "OBJECTID_1": 25, "OBJECTID": 25, "DTH": "ID74", "EDS": "1993", "JNP": "LLN", "JDP": "Nusatenggara Timur (termasuk Sulawesi Selatan dan Sulawesi Tenggara)", "NLP": "LLN26", "PRJ": "TM", "SKL": 500000, "PLK": "PT. Geotrav Bhuana Survey", "REV": "2010", "SHAPE_Leng": 15.334, "TE_LPI": "format data digital: Shapefile,Geodatabase", "Shape_Le_1": 15.334, "Shape_Area": 14.2515, "Jenis_Data": null, "Link_Data": null }, "geometry": { "type": "MultiPolygon", "coordinates": [ [ [ [ 119.833, -9.0 ], [ 119.833, -5.833 ], [ 124.333, -5.833 ], [ 124.333, -9.0 ], [ 119.833, -9.0 ] ] ] ] } },
{ "type": "Feature", "properties": { "OBJECTID_1": 26, "OBJECTID": 26, "DTH": "ID74", "EDS": "1993", "JNP": "LLN", "JDP": "Nusatenggara Timur", "NLP": "LLN27", "PRJ": "TM", "SKL": 500000, "PLK": "PT. Geotrav Bhuana Survey", "REV": "2010", "SHAPE_Leng": 15.334, "TE_LPI": "format data digital: Shapefile,Geodatabase", "Shape_Le_1": 15.334, "Shape_Area": 14.2515, "Jenis_Data": null, "Link_Data": null }, "geometry": { "type": "MultiPolygon", "coordinates": [ [ [ [ 119.833, -12.0 ], [ 119.833, -8.832999999999856 ], [ 124.333, -8.832999999999856 ], [ 124.333, -12.0 ], [ 119.833, -12.0 ] ] ] ] } },
{ "type": "Feature", "properties": { "OBJECTID_1": 27, "OBJECTID": 27, "DTH": "ID74", "EDS": "1993", "JNP": "LLN", "JDP": "Sulawesi Utara (P.P Sangihe dan Talaud)", "NLP": "LLN28", "PRJ": "TM", "SKL": 500000, "PLK": "PT. Geotrav Bhuana Survey", "REV": "2008", "SHAPE_Leng": 15.334, "TE_LPI": "format data digital: Shapefile,Geodatabase", "Shape_Le_1": 15.334, "Shape_Area": 14.2515, "Jenis_Data": null, "Link_Data": null }, "geometry": { "type": "MultiPolygon", "coordinates": [ [ [ [ 124.000000000000114, 1.333 ], [ 124.000000000000114, 5.833000000000197 ], [ 127.167000000000144, 5.833000000000197 ], [ 127.167000000000144, 1.333 ], [ 124.000000000000114, 1.333 ] ] ] ] } },
{ "type": "Feature", "properties": { "OBJECTID_1": 28, "OBJECTID": 28, "DTH": "ID74", "EDS": "1992", "JNP": "LLN", "JDP": "Aceh (termasuk Sumatera-Utara)", "NLP": "LLN01", "PRJ": "TM", "SKL": 500000, "PLK": "PT. Geotrav Bhuana Survey", "REV": "2007", "SHAPE_Leng": 15.332, "TE_LPI": "format data digital: Shapefile,Geodatabase", "Shape_Le_1": 15.332, "Shape_Area": 14.247, "Jenis_Data": null, "Link_Data": null }, "geometry": { "type": "MultiPolygon", "coordinates": [ [ [ [ 94.0, 3.167 ], [ 94.0, 6.333000000000141 ], [ 98.5, 6.333000000000141 ], [ 98.5, 3.167 ], [ 94.0, 3.167 ] ] ] ] } },
{ "type": "Feature", "properties": { "OBJECTID_1": 29, "OBJECTID": 29, "DTH": "ID74", "EDS": "1992", "JNP": "LLN", "JDP": "Sumatera Utara (termasuk Aceh)", "NLP": "LLN02", "PRJ": "TM", "SKL": 500000, "PLK": "PT. Geotrav Bhuana Survey", "REV": "2007", "SHAPE_Leng": 15.332, "TE_LPI": "format data digital: Shapefile,Geodatabase", "Shape_Le_1": 15.332, "Shape_Area": 14.247, "Jenis_Data": null, "Link_Data": null }, "geometry": { "type": "MultiPolygon", "coordinates": [ [ [ [ 95.000000000000171, 0.167000000000144 ], [ 95.000000000000171, 3.333000000000197 ], [ 99.500000000000171, 3.333000000000197 ], [ 99.500000000000171, 0.167000000000144 ], [ 95.000000000000171, 0.167000000000144 ] ] ] ] } },
{ "type": "Feature", "properties": { "OBJECTID_1": 30, "OBJECTID": 30, "DTH": "ID74", "EDS": "1992", "JNP": "LLN", "JDP": "Sumatera Barat (termasuk Sumatera Utara, Bengkulu dan Riau)", "NLP": "LLN03", "PRJ": "TM", "SKL": 500000, "PLK": "PT. Geotrav Bhuana Survey", "REV": "2007", "SHAPE_Leng": 15.332, "TE_LPI": "format data digital: Shapefile,Geodatabase", "Shape_Le_1": 15.332, "Shape_Area": 14.247, "Jenis_Data": null, "Link_Data": null }, "geometry": { "type": "MultiPolygon", "coordinates": [ [ [ [ 97.000000000000114, -2.833 ], [ 97.000000000000114, 0.333 ], [ 101.500000000000114, 0.333 ], [ 101.500000000000114, -2.833 ], [ 97.000000000000114, -2.833 ] ] ] ] } },
{ "type": "Feature", "properties": { "OBJECTID_1": 31, "OBJECTID": 31, "DTH": "ID74", "EDS": "1992", "JNP": "LLN", "JDP": "Sumatera Utara (termasuk Sumatera Barat dan Riau)", "NLP": "LLN04", "PRJ": "TM", "SKL": 500000, "PLK": "PT. Geotrav Bhuana Survey", "REV": "2007", "SHAPE_Leng": 15.334, "TE_LPI": "format data digital: Shapefile,Geodatabase", "Shape_Le_1": 15.334, "Shape_Area": 14.2515, "Jenis_Data": null, "Link_Data": null }, "geometry": { "type": "MultiPolygon", "coordinates": [ [ [ [ 98.333000000000141, 0.167000000000144 ], [ 98.333000000000141, 4.667000000000144 ], [ 101.500000000000114, 4.667000000000144 ], [ 101.500000000000114, 0.167000000000144 ], [ 98.333000000000141, 0.167000000000144 ] ] ] ] } },
{ "type": "Feature", "properties": { "OBJECTID_1": 32, "OBJECTID": 32, "DTH": "ID74", "EDS": "1992", "JNP": "LLN", "JDP": "Bengkulu (termasuk Jambi, Sumatera Selatan dan Lampung)", "NLP": "LLN05", "PRJ": "TM", "SKL": 500000, "PLK": "PT. Geotrav Bhuana Survey", "REV": "2007", "SHAPE_Leng": 15.332, "TE_LPI": "format data digital: Shapefile,Geodatabase", "Shape_Le_1": 15.332, "Shape_Area": 14.247, "Jenis_Data": null, "Link_Data": null }, "geometry": { "type": "MultiPolygon", "coordinates": [ [ [ [ 99.500000000000171, -5.833 ], [ 99.500000000000171, -2.666999999999859 ], [ 104.000000000000171, -2.666999999999859 ], [ 104.000000000000171, -5.833 ], [ 99.500000000000171, -5.833 ] ] ] ] } },
{ "type": "Feature", "properties": { "OBJECTID_1": 33, "OBJECTID": 33, "DTH": "ID74", "EDS": "1992", "JNP": "LLN", "JDP": "Riau", "NLP": "LLN06", "PRJ": "TM", "SKL": 500000, "PLK": "PT. Geotrav Bhuana Survey", "REV": "2007", "SHAPE_Leng": 15.332, "TE_LPI": "format data digital: Shapefile,Geodatabase", "Shape_Le_1": 15.332, "Shape_Area": 14.247, "Jenis_Data": null, "Link_Data": null }, "geometry": { "type": "MultiPolygon", "coordinates": [ [ [ [ 101.333, 0.167000000000144 ], [ 101.333, 3.333000000000197 ], [ 105.833, 3.333000000000197 ], [ 105.833, 0.167000000000144 ], [ 101.333, 0.167000000000144 ] ] ] ] } },
{ "type": "Feature", "properties": { "OBJECTID_1": 34, "OBJECTID": 34, "DTH": "ID74", "EDS": "1992", "JNP": "LLN", "JDP": "Jambi (termasuk Sumatera Barat, Riau dan Sumatera Selatan)", "NLP": "LLN07", "PRJ": "TM", "SKL": 500000, "PLK": "PT. Geotrav Bhuana Survey", "REV": "2007", "SHAPE_Leng": 15.332, "TE_LPI": "format data digital: Shapefile,Geodatabase", "Shape_Le_1": 15.332, "Shape_Area": 14.247, "Jenis_Data": null, "Link_Data": null }, "geometry": { "type": "MultiPolygon", "coordinates": [ [ [ [ 101.333, -2.833 ], [ 101.333, 0.333 ], [ 105.833, 0.333 ], [ 105.833, -2.833 ], [ 101.333, -2.833 ] ] ] ] } },
{ "type": "Feature", "properties": { "OBJECTID_1": 35, "OBJECTID": 35, "DTH": "ID74", "EDS": "1992", "JNP": "LLN", "JDP": "Jawa Barat (termasuk Lampung dan Jakarta)", "NLP": "LLN08", "PRJ": "TM", "SKL": 500000, "PLK": "PT. Geotrav Bhuana Survey", "REV": "2006", "SHAPE_Leng": 15.334, "TE_LPI": "format data digital: Mapinfo", "Shape_Le_1": 15.334, "Shape_Area": 14.2515, "Jenis_Data": null, "Link_Data": null }, "geometry": { "type": "MultiPolygon", "coordinates": [ [ [ [ 103.500000000000114, -8.167 ], [ 103.500000000000114, -5.0 ], [ 108.0, -5.0 ], [ 108.0, -8.167 ], [ 103.500000000000114, -8.167 ] ] ] ] } },
{ "type": "Feature", "properties": { "OBJECTID_1": 36, "OBJECTID": 36, "DTH": "ID74", "EDS": "1992", "JNP": "LLN", "JDP": "Sumatera Selatan (termasuk Lampung)", "NLP": "LLN09", "PRJ": "TM", "SKL": 500000, "PLK": "PT. Geotrav Bhuana Survey", "REV": "2007", "SHAPE_Leng": 15.334, "TE_LPI": "format data digital: Shapefile,Geodatabase", "Shape_Le_1": 15.334, "Shape_Area": 14.2515, "Jenis_Data": null, "Link_Data": null }, "geometry": { "type": "MultiPolygon", "coordinates": [ [ [ [ 103.833, -5.167 ], [ 103.833, -1.999999999999886 ], [ 108.333, -1.999999999999886 ], [ 108.333, -5.167 ], [ 103.833, -5.167 ] ] ] ] } },
{ "type": "Feature", "properties": { "OBJECTID_1": 37, "OBJECTID": 37, "DTH": "ID74", "EDS": "1992", "JNP": "LLN", "JDP": "Riau (bagian Natuna Utara)", "NLP": "LLN10", "PRJ": "TM", "SKL": 500000, "PLK": "PT. Geotrav Bhuana Survey", "REV": "2006", "SHAPE_Leng": 15.666, "TE_LPI": "format data digital: Mapinfo", "Shape_Le_1": 15.666, "Shape_Area": 14.9985, "Jenis_Data": null, "Link_Data": null }, "geometry": { "type": "MultiPolygon", "coordinates": [ [ [ [ 105.000000000000171, 0.833000000000141 ], [ 105.000000000000171, 5.333000000000141 ], [ 108.333, 5.333000000000141 ], [ 108.333, 0.833000000000141 ], [ 105.000000000000171, 0.833000000000141 ] ] ] ] } },
{ "type": "Feature", "properties": { "OBJECTID_1": 38, "OBJECTID": 38, "DTH": "ID74", "EDS": "1992", "JNP": "LLN", "JDP": "Kalimantan Barat (termasuk Riau dan Sumatera Selatan)", "NLP": "LLN11", "PRJ": "TM", "SKL": 500000, "PLK": "PT. Geotrav Bhuana Survey", "REV": "2007", "SHAPE_Leng": 15.334, "TE_LPI": "format data digital: Shapefile,Geodatabase", "Shape_Le_1": 15.334, "Shape_Area": 14.2515, "Jenis_Data": null, "Link_Data": null }, "geometry": { "type": "MultiPolygon", "coordinates": [ [ [ [ 105.667000000000144, -2.166999999999859 ], [ 105.667000000000144, 1.0 ], [ 110.167, 1.0 ], [ 110.167, -2.166999999999859 ], [ 105.667000000000144, -2.166999999999859 ] ] ] ] } },
{ "type": "Feature", "properties": { "OBJECTID_1": 39, "OBJECTID": 39, "DTH": "ID74", "EDS": "1992", "JNP": "LLN", "JDP": "Jawa Tengah (termasuk Yogyakarta dan Jawa Barat)", "NLP": "LLN12", "PRJ": "TM", "SKL": 500000, "PLK": "PT. Geotrav Bhuana Survey", "REV": "2006", "SHAPE_Leng": 15.332, "TE_LPI": "format data digital: Mapinfo", "Shape_Le_1": 15.332, "Shape_Area": 14.247, "Jenis_Data": null, "Link_Data": null }, "geometry": { "type": "MultiPolygon", "coordinates": [ [ [ [ 107.667, -9.0 ], [ 107.667, -4.5 ], [ 110.833000000000141, -4.5 ], [ 110.833000000000141, -9.0 ], [ 107.667, -9.0 ] ] ] ] } },
{ "type": "Feature", "properties": { "OBJECTID_1": 40, "OBJECTID": 40, "DTH": "ID74", "EDS": "1992", "JNP": "LLN", "JDP": "Kalimantan Barat (termasuk Riau)", "NLP": "LLN13", "PRJ": "TM", "SKL": 500000, "PLK": "PT. Geotrav Bhuana Survey", "REV": "2008", "SHAPE_Leng": 15.666, "TE_LPI": "format data digital: Shapefile,Geodatabase", "Shape_Le_1": 15.666, "Shape_Area": 14.9985, "Jenis_Data": null, "Link_Data": null }, "geometry": { "type": "MultiPolygon", "coordinates": [ [ [ [ 108.0, 0.833000000000141 ], [ 108.0, 5.333000000000141 ], [ 111.333, 5.333000000000141 ], [ 111.333, 0.833000000000141 ], [ 108.0, 0.833000000000141 ] ] ] ] } },
{ "type": "Feature", "properties": { "OBJECTID_1": 41, "OBJECTID": 41, "DTH": "ID74", "EDS": "1992", "JNP": "LLN", "JDP": "Kalimantan Barat (termasuk Kalimantan Tengah)", "NLP": "LLN14", "PRJ": "TM", "SKL": 500000, "PLK": "PT. Geotrav Bhuana Survey", "REV": "2008", "SHAPE_Leng": 15.332, "TE_LPI": "format data digital: Shapefile,Geodatabase", "Shape_Le_1": 15.332, "Shape_Area": 14.247, "Jenis_Data": null, "Link_Data": null }, "geometry": { "type": "MultiPolygon", "coordinates": [ [ [ [ 108.167000000000144, -5.167 ], [ 108.167000000000144, -0.667 ], [ 111.333, -0.667 ], [ 111.333, -5.167 ], [ 108.167000000000144, -5.167 ] ] ] ] } },
{ "type": "Feature", "properties": { "OBJECTID_1": 42, "OBJECTID": 42, "DTH": "ID74", "EDS": "1992", "JNP": "LLN", "JDP": "Jawa Timur (Termasuk Ja-Teng)", "NLP": "LLN15", "PRJ": "TM", "SKL": 500000, "PLK": "PT. Geotrav Bhuana Survey", "REV": "2006", "SHAPE_Leng": 15.332, "TE_LPI": "format data digital: Mapinfo", "Shape_Le_1": 15.332, "Shape_Area": 14.247, "Jenis_Data": null, "Link_Data": null }, "geometry": { "type": "MultiPolygon", "coordinates": [ [ [ [ 110.667, -9.167 ], [ 110.667, -4.667 ], [ 113.833, -4.667 ], [ 113.833, -9.167 ], [ 110.667, -9.167 ] ] ] ] } },
{ "type": "Feature", "properties": { "OBJECTID_1": 43, "OBJECTID": 43, "DTH": "ID74", "EDS": "1992", "JNP": "LLN", "JDP": "Kalimantan Tengah (termasuk Kalimantan Selatan)", "NLP": "LLN16", "PRJ": "TM", "SKL": 500000, "PLK": "PT. Geotrav Bhuana Survey", "REV": "2006", "SHAPE_Leng": 15.334, "TE_LPI": "format data digital: Mapinfo", "Shape_Le_1": 15.334, "Shape_Area": 14.2515, "Jenis_Data": null, "Link_Data": null }, "geometry": { "type": "MultiPolygon", "coordinates": [ [ [ [ 111.167, -5.167 ], [ 111.167, -1.999999999999886 ], [ 115.667000000000257, -1.999999999999886 ], [ 115.667000000000257, -5.167 ], [ 111.167, -5.167 ] ] ] ] } },
{ "type": "Feature", "properties": { "OBJECTID_1": 44, "OBJECTID": 44, "DTH": "ID74", "EDS": "1992", "JNP": "LLN", "JDP": "Bali (termasuk Jawa Timur dan Nusa Tenggara Barat)", "NLP": "LLN17", "PRJ": "TM", "SKL": 500000, "PLK": "PT. Geotrav Bhuana Survey", "REV": "2006", "SHAPE_Leng": 15.332, "TE_LPI": "format data digital: Mapinfo", "Shape_Le_1": 15.332, "Shape_Area": 14.247, "Jenis_Data": null, "Link_Data": null }, "geometry": { "type": "MultiPolygon", "coordinates": [ [ [ [ 113.667000000000144, -9.5 ], [ 113.667000000000144, -5.0 ], [ 116.833000000000197, -5.0 ], [ 116.833000000000197, -9.5 ], [ 113.667000000000144, -9.5 ] ] ] ] } }
]
}
