{
"type": "FeatureCollection",
"name": "LLN 50K",
"crs": { "type": "name", "properties": { "name": "urn:ogc:def:crs:OGC:1.3:CRS84" } },
"features": [
{ "type": "Feature", "properties": { "OBJECTID_1": 1, "OBJECTID": 1, "DATUM": "WGS84", "EDISI": "2013", "JENISPETA": "LLN", "JUDULPETA": "PULAU PABELOKAN", "NLP": "LLN 08-111110", "PROYEKSI": "Transverse Mercator", "SKALA": "50000", "Shape_Leng": 1.3333334, "THN": "2013", "PLK": "PT. WALS", "TE_LPI": "format data digital: Shapefile,Geodatabase", "REV": null, "LAT_LL": 0.0, "LAT_UR": 0.0, "LON_LL": 0.0, "LON_UR": 0.0, "KETERANGAN": null, "PENERBIT": "BIG", "Shape_Le_1": 1.3333334, "Shape_Area": 0.11111112221, "Jenis_Data": null, "Link_Data": 0.0, "DTH": "WGS84" }, "geometry": { "type": "MultiPolygon", "coordinates": [ [ [ [ 106.083333300000049, -5.75 ], [ 106.083333300000049, -5.416669999999897 ], [ 106.41667, -5.416669999999897 ], [ 106.41667, -5.75 ], [ 106.083333300000049, -5.75 ] ] ] ] } },
{ "type": "Feature", "properties": { "OBJECTID_1": 2, "OBJECTID": 2, "DATUM": "WGS84", "EDISI": "2013", "JENISPETA": "LLN", "JUDULPETA": "PULAU SABIRA", "NLP": "LLN 08-111112", "PROYEKSI": "Transverse Mercator", "SKALA": "50000", "Shape_Leng": 1.3323367633500001, "THN": "2013", "PLK": "PT. WALS", "TE_LPI": "format data digital: Shapefile,Geodatabase", "REV": null, "LAT_LL": 0.0, "LAT_UR": 0.0, "LON_LL": 0.0, "LON_UR": 0.0, "KETERANGAN": null, "PENERBIT": "BIG", "Shape_Le_1": 1.3323367633500001, "Shape_Area": 0.11094498891, "Jenis_Data": null, "Link_Data": 0.0, "DTH": "WGS84" }, "geometry": { "type": "MultiPolygon", "coordinates": [ [ [ [ 106.750000000000171, -5.416669999999897 ], [ 106.416666700000121, -5.416669999999897 ], [ 106.416666700000121, -5.084 ], [ 106.750000000000171, -5.08367 ], [ 106.750000000000171, -5.416669999999897 ] ] ] ] } },
{ "type": "Feature", "properties": { "OBJECTID_1": 3, "OBJECTID": 3, "DATUM": "WGS84", "EDISI": "2013", "JENISPETA": "LLN", "JUDULPETA": "PULAU SEGAMA BESAR", "NLP": "LLN 08-111111", "PROYEKSI": "Transverse Mercator", "SKALA": "50000", "Shape_Leng": 1.33233696335, "THN": "2013", "PLK": "PT. WALS", "TE_LPI": "format data digital: Shapefile,Geodatabase", "REV": null, "LAT_LL": 0.0, "LAT_UR": 0.0, "LON_LL": 0.0, "LON_UR": 0.0, "KETERANGAN": null, "PENERBIT": "BIG", "Shape_Le_1": 1.33233696335, "Shape_Area": 0.11094502219000001, "Jenis_Data": null, "Link_Data": 0.0, "DTH": "WGS84" }, "geometry": { "type": "MultiPolygon", "coordinates": [ [ [ [ 106.083333300000049, -5.416669999999897 ], [ 106.083333300000049, -5.08367 ], [ 106.416666700000121, -5.084 ], [ 106.416666700000121, -5.416669999999897 ], [ 106.083333300000049, -5.416669999999897 ] ] ] ] } },
{ "type": "Feature", "properties": { "OBJECTID_1": 4, "OBJECTID": 4, "DATUM": "WGS84", "EDISI": "2013", "JENISPETA": "LLN", "JUDULPETA": "KEPULAUAN SERIBU", "NLP": "LLN 08-121001", "PROYEKSI": "Transverse Mercator", "SKALA": "50000", "Shape_Leng": 1.333319976, "THN": "2013", "PLK": "PT. WALS", "TE_LPI": "format data digital: Shapefile,Geodatabase", "REV": null, "LAT_LL": 0.0, "LAT_UR": 0.0, "LON_LL": 0.0, "LON_UR": 0.0, "KETERANGAN": null, "PENERBIT": "BIG", "Shape_Le_1": 1.333319976, "Shape_Area": 0.1111088849, "Jenis_Data": null, "Link_Data": 0.0, "DTH": "WGS84" }, "geometry": { "type": "MultiPolygon", "coordinates": [ [ [ [ 107.08332997600013, -5.833330010999873 ], [ 106.74999997600014, -5.833330010999873 ], [ 106.750000000000171, -5.500000010999941 ], [ 107.08332997600013, -5.500000010999941 ], [ 107.08332997600013, -5.833330010999873 ] ] ] ] } },
{ "type": "Feature", "properties": { "OBJECTID_1": 5, "OBJECTID": 5, "DATUM": "WGS84", "EDISI": "2014", "JENISPETA": "LLN", "JUDULPETA": "PULAU PARANG", "NLP": "LLN 12-141001", "PROYEKSI": "Transverse Mercator", "SKALA": "50000", "Shape_Leng": 1.333844846, "THN": "2014", "PLK": "PT. Inomata Konsultan", "TE_LPI": "format data digital: Shapefile,Geodatabase", "REV": null, "LAT_LL": 0.0, "LAT_UR": 0.0, "LON_LL": 0.0, "LON_UR": 0.0, "KETERANGAN": null, "PENERBIT": "BIG", "Shape_Le_1": 1.333844846, "Shape_Area": 0.11119636321, "Jenis_Data": null, "Link_Data": 0.0, "DTH": "WGS84" }, "geometry": { "type": "MultiPolygon", "coordinates": [ [ [ [ 110.333333300000106, -5.833589122999911 ], [ 110.0, -5.833589122999911 ], [ 110.0, -5.499999999999829 ], [ 110.333333300000106, -5.499999999999829 ], [ 110.333333300000106, -5.833589122999911 ] ] ] ] } },
{ "type": "Feature", "properties": { "OBJECTID_1": 6, "OBJECTID": 6, "DATUM": "WGS84", "EDISI": "2014", "JENISPETA": "LLN", "JUDULPETA": "PULAU KARIMUNJAWA", "NLP": "LLN 12-141004", "PROYEKSI": "Transverse Mercator", "SKALA": "50000", "Shape_Leng": 1.3332446117000001, "THN": "2014", "PLK": "PT. Inomata Konsultan", "TE_LPI": "format data digital: Shapefile,Geodatabase", "REV": null, "LAT_LL": 0.0, "LAT_UR": 0.0, "LON_LL": 0.0, "LON_UR": 0.0, "KETERANGAN": null, "PENERBIT": "BIG", "Shape_Le_1": 1.3332446117000001, "Shape_Area": 0.11109627955, "Jenis_Data": null, "Link_Data": 0.0, "DTH": "WGS84" }, "geometry": { "type": "MultiPolygon", "coordinates": [ [ [ [ 110.333333300000106, -5.833589122999911 ], [ 110.666666700000121, -5.833166666999944 ], [ 110.666666700000121, -6.166666666999845 ], [ 110.333333300000106, -6.166666666999845 ], [ 110.333333300000106, -5.833589122999911 ] ] ] ] } },
{ "type": "Feature", "properties": { "OBJECTID_1": 7, "OBJECTID": 7, "DATUM": "WGS84", "EDISI": "2014", "JENISPETA": "LLN", "JUDULPETA": "PULAU KRAKAL BESAR", "NLP": "LLN 12-141003", "PROYEKSI": "Transverse Mercator", "SKALA": "50000", "Shape_Leng": 1.332821688, "THN": "2014", "PLK": "PT. Inomata Konsultan", "TE_LPI": "format data digital: Shapefile,Geodatabase", "REV": null, "LAT_LL": 0.0, "LAT_UR": 0.0, "LON_LL": 0.0, "LON_UR": 0.0, "KETERANGAN": null, "PENERBIT": "BIG", "Shape_Le_1": 1.332821688, "Shape_Area": 0.1110258369, "Jenis_Data": null, "Link_Data": 0.0, "DTH": "WGS84" }, "geometry": { "type": "MultiPolygon", "coordinates": [ [ [ [ 110.0, -5.833589122999911 ], [ 110.333333300000106, -5.833589122999911 ], [ 110.333333300000106, -6.166666666999845 ], [ 110.0, -6.166666666999845 ], [ 110.0, -5.833589122999911 ] ] ] ] } },
{ "type": "Feature", "properties": { "OBJECTID_1": 8, "OBJECTID": 8, "DATUM": "WGS84", "EDISI": "2014", "JENISPETA": "LLN", "JUDULPETA": "PULAU BENGKOANG", "NLP": "LLN 12-141002", "PROYEKSI": "Transverse Mercator", "SKALA": "50000", "Shape_Leng": 1.3334228577, "THN": "2014", "PLK": "PT. Inomata Konsultan", "TE_LPI": "format data digital: Shapefile,Geodatabase", "REV": null, "LAT_LL": 0.0, "LAT_UR": 0.0, "LON_LL": 0.0, "LON_UR": 0.0, "KETERANGAN": null, "PENERBIT": "BIG", "Shape_Le_1": 1.3334228577, "Shape_Area": 0.11112598723, "Jenis_Data": null, "Link_Data": 0.0, "DTH": "WGS84" }, "geometry": { "type": "MultiPolygon", "coordinates": [ [ [ [ 110.666666700000121, -5.833166666999944 ], [ 110.333333300000106, -5.833589122999911 ], [ 110.333333300000106, -5.499999999999829 ], [ 110.666666700000121, -5.499999999999829 ], [ 110.666666700000121, -5.833166666999944 ] ] ] ] } },
{ "type": "Feature", "properties": { "OBJECTID_1": 9, "OBJECTID": 7, "DATUM": "WGS84", "EDISI": "2015", "JENISPETA": "LLN", "JUDULPETA": "PULAU KRAKAL BESAR", "NLP": "LLN 15-161001", "PROYEKSI": "Transverse Mercator", "SKALA": "50000", "Shape_Leng": 1.332821688, "THN": "2015", "PLK": "PT. Adiccon Mulya", "TE_LPI": "format data digital: Shapefile,Geodatabase", "REV": null, "LAT_LL": 0.0, "LAT_UR": 0.0, "LON_LL": 0.0, "LON_UR": 0.0, "KETERANGAN": null, "PENERBIT": "BIG", "Shape_Le_1": 1.333333466, "Shape_Area": 0.11111113322000001, "Jenis_Data": null, "Link_Data": 0.0, "DTH": "WGS84" }, "geometry": { "type": "MultiPolygon", "coordinates": [ [ [ [ 112.33333330000039, -5.75 ], [ 112.666666700000064, -5.75 ], [ 112.666666700000064, -6.083333332999985 ], [ 112.33333330000039, -6.083333332999985 ], [ 112.33333330000039, -5.75 ] ] ] ] } },
{ "type": "Feature", "properties": { "OBJECTID_1": 10, "OBJECTID": 5, "DATUM": "WGS84", "EDISI": "2015", "JENISPETA": "LLN", "JUDULPETA": "PULAU PARANG", "NLP": "LLN 15-161002", "PROYEKSI": "Transverse Mercator", "SKALA": "50000", "Shape_Leng": 1.333844846, "THN": "2015", "PLK": "PT. Adiccon Mulya", "TE_LPI": "format data digital: Shapefile,Geodatabase", "REV": null, "LAT_LL": 0.0, "LAT_UR": 0.0, "LON_LL": 0.0, "LON_UR": 0.0, "KETERANGAN": null, "PENERBIT": "BIG", "Shape_Le_1": 1.333333466, "Shape_Area": 0.11111113322000001, "Jenis_Data": null, "Link_Data": 0.0, "DTH": "WGS84" }, "geometry": { "type": "MultiPolygon", "coordinates": [ [ [ [ 112.666666700000064, -5.75 ], [ 112.33333330000039, -5.75 ], [ 112.33333330000039, -5.416666666999902 ], [ 112.666666700000064, -5.416666666999902 ], [ 112.666666700000064, -5.75 ] ] ] ] } },
{ "type": "Feature", "properties": { "OBJECTID_1": 11, "OBJECTID": 8, "DATUM": "WGS84", "EDISI": "2015", "JENISPETA": "LLN", "JUDULPETA": "PULAU BENGKOANG", "NLP": "LLN 15-161003", "PROYEKSI": "Transverse Mercator", "SKALA": "50000", "Shape_Leng": 1.3334228577, "THN": "2015", "PLK": "PT. Adiccon Mulya", "TE_LPI": "format data digital: Shapefile,Geodatabase", "REV": null, "LAT_LL": 0.0, "LAT_UR": 0.0, "LON_LL": 0.0, "LON_UR": 0.0, "KETERANGAN": null, "PENERBIT": "BIG", "Shape_Le_1": 1.333333266, "Shape_Area": 0.11111109989, "Jenis_Data": null, "Link_Data": 0.0, "DTH": "WGS84" }, "geometry": { "type": "MultiPolygon", "coordinates": [ [ [ [ 113.000000000000114, -5.75 ], [ 112.666666700000064, -5.75 ], [ 112.666666700000064, -5.416666666999902 ], [ 113.000000000000114, -5.416666666999902 ], [ 113.000000000000114, -5.75 ] ] ] ] } },
{ "type": "Feature", "properties": { "OBJECTID_1": 12, "OBJECTID": 6, "DATUM": "WGS84", "EDISI": "2015", "JENISPETA": "LLN", "JUDULPETA": "PULAU KARIMUNJAWA", "NLP": "LLN 15-161004", "PROYEKSI": "Transverse Mercator", "SKALA": "50000", "Shape_Leng": 1.3332446117000001, "THN": "2015", "PLK": "PT. Adiccon Mulya", "TE_LPI": "format data digital: Shapefile,Geodatabase", "REV": null, "LAT_LL": 0.0, "LAT_UR": 0.0, "LON_LL": 0.0, "LON_UR": 0.0, "KETERANGAN": null, "PENERBIT": "BIG", "Shape_Le_1": 1.333333266, "Shape_Area": 0.11111109989, "Jenis_Data": null, "Link_Data": 0.0, "DTH": "WGS84" }, "geometry": { "type": "MultiPolygon", "coordinates": [ [ [ [ 112.666666700000292, -5.75 ], [ 113.000000000000341, -5.75 ], [ 113.000000000000341, -6.083333332999985 ], [ 112.666666700000292, -6.083333332999985 ], [ 112.666666700000292, -5.75 ] ] ] ] } },
{ "type": "Feature", "properties": { "OBJECTID_1": 13, "OBJECTID": 0, "DATUM": "SRGI 2013", "EDISI": "2019", "JENISPETA": "LLN", "JUDULPETA": "KAPOTA", "NLP": "LEMBAR 2310-02", "PROYEKSI": "Transverse Mercator", "SKALA": "50000", "Shape_Leng": 0.0, "THN": "2016", "PLK": "PT. Inomata Konsultan", "TE_LPI": "format data digital: Shapefile,Geodatabase", "REV": null, "LAT_LL": 0.0, "LAT_UR": 0.0, "LON_LL": 0.0, "LON_UR": 0.0, "KETERANGAN": null, "PENERBIT": "BIG", "Shape_Le_1": 1.331999998, "Shape_Area": 0.11088899967, "Jenis_Data": null, "Link_Data": 0.0, "DTH": "SRGI 2013" }, "geometry": { "type": "MultiPolygon", "coordinates": [ [ [ [ 123.167000001000133, -5.500000000999933 ], [ 123.167000001000133, -5.167 ], [ 123.499999999000124, -5.167 ], [ 123.499999999000124, -5.500000000999933 ], [ 123.167000001000133, -5.500000000999933 ] ] ] ] } },
{ "type": "Feature", "properties": { "OBJECTID_1": 14, "OBJECTID": 0, "DATUM": "SRGI 2013", "EDISI": "2019", "JENISPETA": "LLN", "JUDULPETA": "WANCI", "NLP": "LEMBAR 2310-03", "PROYEKSI": "Transverse Mercator", "SKALA": "50000", "Shape_Leng": 0.0, "THN": "2016", "PLK": "PT. Inomata Konsultan", "TE_LPI": "format data digital: Shapefile,Geodatabase", "REV": null, "LAT_LL": 0.0, "LAT_UR": 0.0, "LON_LL": 0.0, "LON_UR": 0.0, "KETERANGAN": null, "PENERBIT": "BIG", "Shape_Le_1": 1.332000004, "Shape_Area": 0.11088900067, "Jenis_Data": null, "Link_Data": 0.0, "DTH": "SRGI 2013" }, "geometry": { "type": "MultiPolygon", "coordinates": [ [ [ [ 123.499999999000124, -5.500000000999933 ], [ 123.499999999000124, -5.167 ], [ 123.833000000000197, -5.167 ], [ 123.833000000000197, -5.500000000999933 ], [ 123.499999999000124, -5.500000000999933 ] ] ] ] } },
{ "type": "Feature", "properties": { "OBJECTID_1": 15, "OBJECTID": 0, "DATUM": "SRGI 2013", "EDISI": "2019", "JENISPETA": "LLN", "JUDULPETA": "AMBEUA", "NLP": "LEMBAR 2310-04", "PROYEKSI": "Transverse Mercator", "SKALA": "50000", "Shape_Leng": 0.0, "THN": "2016", "PLK": "PT. Inomata Konsultan", "TE_LPI": "format data digital: Shapefile,Geodatabase", "REV": null, "LAT_LL": 0.0, "LAT_UR": 0.0, "LON_LL": 0.0, "LON_UR": 0.0, "KETERANGAN": null, "PENERBIT": "BIG", "Shape_Le_1": 1.334000002, "Shape_Area": 0.11122200033, "Jenis_Data": null, "Link_Data": 0.0, "DTH": "SRGI 2013" }, "geometry": { "type": "MultiPolygon", "coordinates": [ [ [ [ 123.666999999000041, -5.667000000999906 ], [ 123.666999999000041, -5.333000000999846 ], [ 124.000000000000114, -5.333000000999846 ], [ 124.000000000000114, -5.667000000999906 ], [ 123.666999999000041, -5.667000000999906 ] ] ] ] } },
{ "type": "Feature", "properties": { "OBJECTID_1": 16, "OBJECTID": 0, "DATUM": "SRGI 2013", "EDISI": "2019", "JENISPETA": "LLN", "JUDULPETA": "WAHA", "NLP": "LEMBAR 2310-05", "PROYEKSI": "Transverse Mercator", "SKALA": "50000", "Shape_Leng": 0.0, "THN": "2016", "PLK": "PT. Inomata Konsultan", "TE_LPI": "format data digital: Shapefile,Geodatabase", "REV": null, "LAT_LL": 0.0, "LAT_UR": 0.0, "LON_LL": 0.0, "LON_UR": 0.0, "KETERANGAN": null, "PENERBIT": "BIG", "Shape_Le_1": 1.333333268, "Shape_Area": 0.11111110022, "Jenis_Data": null, "Link_Data": 0.0, "DTH": "SRGI 2013" }, "geometry": { "type": "MultiPolygon", "coordinates": [ [ [ [ 123.75, -5.916666666999959 ], [ 123.75, -5.583333332999928 ], [ 124.083333300000049, -5.583333332999928 ], [ 124.083333300000049, -5.916666666999959 ], [ 123.75, -5.916666666999959 ] ] ] ] } },
{ "type": "Feature", "properties": { "OBJECTID_1": 17, "OBJECTID": 0, "DATUM": "SRGI 2013", "EDISI": "2019", "JENISPETA": "LLN", "JUDULPETA": "PULAU BINONGKO", "NLP": "LEMBAR 2310-06", "PROYEKSI": "Transverse Mercator", "SKALA": "50000", "Shape_Leng": 0.0, "THN": "2016", "PLK": "PT. Inomata Konsultan", "TE_LPI": "format data digital: Shapefile,Geodatabase", "REV": null, "LAT_LL": 0.0, "LAT_UR": 0.0, "LON_LL": 0.0, "LON_UR": 0.0, "KETERANGAN": null, "PENERBIT": "BIG", "Shape_Le_1": 1.334, "Shape_Area": 0.111222, "Jenis_Data": null, "Link_Data": 0.0, "DTH": "SRGI 2013" }, "geometry": { "type": "MultiPolygon", "coordinates": [ [ [ [ 123.917, -6.16699999899987 ], [ 123.917, -5.832999998999924 ], [ 124.25, -5.832999998999924 ], [ 124.25, -6.16699999899987 ], [ 123.917, -6.16699999899987 ] ] ] ] } },
{ "type": "Feature", "properties": { "OBJECTID_1": 18, "OBJECTID": 0, "DATUM": "SRGI 2013", "EDISI": "2019", "JENISPETA": "LLN", "JUDULPETA": "TUWUTUWU", "NLP": "LEMBAR 2310-07", "PROYEKSI": "Transverse Mercator", "SKALA": "50000", "Shape_Leng": 0.0, "THN": "2016", "PLK": "PT. Inomata Konsultan", "TE_LPI": "format data digital: Shapefile,Geodatabase", "REV": null, "LAT_LL": 0.0, "LAT_UR": 0.0, "LON_LL": 0.0, "LON_UR": 0.0, "KETERANGAN": null, "PENERBIT": "BIG", "Shape_Le_1": 1.333333264, "Shape_Area": 0.11111109956, "Jenis_Data": null, "Link_Data": 0.0, "DTH": "SRGI 2013" }, "geometry": { "type": "MultiPolygon", "coordinates": [ [ [ [ 124.166666700000292, -5.999999999999886 ], [ 124.166666700000292, -5.666666666999959 ], [ 124.5, -5.666666666999959 ], [ 124.500000008000029, -5.999999989999878 ], [ 124.166666700000292, -5.999999999999886 ] ] ] ] } },
{ "type": "Feature", "properties": { "OBJECTID_1": 19, "OBJECTID": 0, "DATUM": "SRGI 2013", "EDISI": "2019", "JENISPETA": "LLN", "JUDULPETA": "PULAU RUNDUMA", "NLP": "LEMBAR 2310-08", "PROYEKSI": "Transverse Mercator", "SKALA": "50000", "Shape_Leng": 0.0, "THN": "2016", "PLK": "PT. Inomata Konsultan", "TE_LPI": "format data digital: Shapefile,Geodatabase", "REV": null, "LAT_LL": 0.0, "LAT_UR": 0.0, "LON_LL": 0.0, "LON_UR": 0.0, "KETERANGAN": null, "PENERBIT": "BIG", "Shape_Le_1": 1.332000002, "Shape_Area": 0.11088900033, "Jenis_Data": null, "Link_Data": 0.0, "DTH": "SRGI 2013" }, "geometry": { "type": "MultiPolygon", "coordinates": [ [ [ [ 124.167, -5.500000000999933 ], [ 124.167, -5.167 ], [ 124.5, -5.167 ], [ 124.5, -5.500000000999933 ], [ 124.167, -5.500000000999933 ] ] ] ] } },
{ "type": "Feature", "properties": { "OBJECTID_1": 20, "OBJECTID": 0, "DATUM": "SRGI 2013", "EDISI": "2019", "JENISPETA": "LLN", "JUDULPETA": "PULAU MOROMAHO", "NLP": "LEMBAR 2309-01", "PROYEKSI": "Transverse Mercator", "SKALA": "50000", "Shape_Leng": 0.0, "THN": "2016", "PLK": "PT. Inomata Konsultan", "TE_LPI": "format data digital: Shapefile,Geodatabase", "REV": null, "LAT_LL": 0.0, "LAT_UR": 0.0, "LON_LL": 0.0, "LON_UR": 0.0, "KETERANGAN": null, "PENERBIT": "BIG", "Shape_Le_1": 1.3332708148900001, "Shape_Area": 0.11110069039000001, "Jenis_Data": null, "Link_Data": 0.0, "DTH": "SRGI 2013" }, "geometry": { "type": "MultiPolygon", "coordinates": [ [ [ [ 124.333333300000163, -6.333333332999871 ], [ 124.333333300000163, -5.999999999999886 ], [ 124.666666700000064, -6.00006265699983 ], [ 124.666666700000064, -6.333333332999871 ], [ 124.333333300000163, -6.333333332999871 ] ] ] ] } },
{ "type": "Feature", "properties": { "OBJECTID_1": 21, "OBJECTID": 199, "DATUM": "WGS84", "EDISI": "2017", "JENISPETA": "LLN", "JUDULPETA": "GENTINGPULUR", "NLP": "LLN 1118-02", "PROYEKSI": "Transverse Mercator", "SKALA": "50000", "Shape_Leng": 0.0, "THN": "2017", "PLK": "PT. WALS", "TE_LPI": "Proses Pemetaan (Survei 2017)", "REV": null, "LAT_LL": 0.0, "LAT_UR": 0.0, "LON_LL": 0.0, "LON_UR": 0.0, "KETERANGAN": null, "PENERBIT": "BIG", "Shape_Le_1": 1.333999998, "Shape_Area": 0.11122199967, "Jenis_Data": null, "Link_Data": 0.0, "DTH": "WGS84" }, "geometry": { "type": "MultiPolygon", "coordinates": [ [ [ [ 105.667000000000144, 2.583000001000073 ], [ 105.667000000000144, 2.916999999000041 ], [ 106.000000001000046, 2.916999999000041 ], [ 106.000000001000046, 2.583000001000073 ], [ 105.667000000000144, 2.583000001000073 ] ] ] ] } },
{ "type": "Feature", "properties": { "OBJECTID_1": 22, "OBJECTID": 296, "DATUM": "WGS84", "EDISI": "2017", "JENISPETA": "LLN", "JUDULPETA": "JEMAJA", "NLP": "LLN 1119-01", "PROYEKSI": "Transverse Mercator", "SKALA": "50000", "Shape_Leng": 0.0, "THN": "2017", "PLK": "PT. WALS", "TE_LPI": "Proses Pemetaan (Survei 2017)", "REV": null, "LAT_LL": 0.0, "LAT_UR": 0.0, "LON_LL": 0.0, "LON_UR": 0.0, "KETERANGAN": null, "PENERBIT": "BIG", "Shape_Le_1": 1.332000002, "Shape_Area": 0.11088900033, "Jenis_Data": null, "Link_Data": 0.0, "DTH": "WGS84" }, "geometry": { "type": "MultiPolygon", "coordinates": [ [ [ [ 105.5, 2.916999999000041 ], [ 105.5, 3.250000000000114 ], [ 105.833, 3.250000000000114 ], [ 105.833, 2.916999999000041 ], [ 105.5, 2.916999999000041 ] ] ] ] } },
{ "type": "Feature", "properties": { "OBJECTID_1": 23, "OBJECTID": 298, "DATUM": "WGS84", "EDISI": "2017", "JENISPETA": "LLN", "JUDULPETA": "PULAU TELAGA", "NLP": "LLN 1119-03", "PROYEKSI": "Transverse Mercator", "SKALA": "50000", "Shape_Leng": 0.0, "THN": "2017", "PLK": "PT. WALS", "TE_LPI": "Proses Pemetaan (Survei 2017)", "REV": null, "LAT_LL": 0.0, "LAT_UR": 0.0, "LON_LL": 0.0, "LON_UR": 0.0, "KETERANGAN": null, "PENERBIT": "BIG", "Shape_Le_1": 1.336000002, "Shape_Area": 0.11155600033, "Jenis_Data": null, "Link_Data": 0.0, "DTH": "WGS84" }, "geometry": { "type": "MultiPolygon", "coordinates": [ [ [ [ 105.833, 2.832999999000037 ], [ 105.833, 3.166999999000154 ], [ 106.167000001000133, 3.166999999000154 ], [ 106.167000001000133, 2.832999999000037 ], [ 105.833, 2.832999999000037 ] ] ] ] } }
]
}
